network_code,receiver_code,receiver_type,receiver_latitude,receiver_longitude,receiver_elevation_m,p_arrival_sample,p_status,p_weight,p_travel_sec,s_arrival_sample,s_status,s_weight,source_id,source_origin_time,source_origin_uncertainty_sec,source_latitude,source_longitude,source_error_sec,source_gap_deg,source_horizontal_uncertainty_km,source_depth_km,source_depth_uncertainty_km,source_magnitude,source_magnitude_type,source_magnitude_author,source_mechanism_strike_dip_rake,source_distance_deg,source_distance_km,back_azimuth_deg,snr_db,coda_end_sample,trace_start_time,trace_category,trace_name
PF,BOR,EH,-21.246882,55.706053,2540,nan,auto_v1,nan,nan,nan,nan,nan,nan,nan,nan,nan,nan,nan,nan,nan,nan,nan,nan,nan,nan,nan,nan,nan,nan,nan,nan,2015-04-19 23:11:00.673130,noise_volcano,BOR.PF_20150419231100_NO
PF,BOR,EH,-21.246882,55.706053,2540,nan,auto_v1,nan,nan,nan,nan,nan,nan,nan,nan,nan,nan,nan,nan,nan,nan,nan,nan,nan,nan,nan,nan,nan,nan,nan,nan,2015-04-19 23:11:50.213130,noise_volcano,BOR.PF_20150419231150_NO
PF,BOR,EH,-21.246882,55.706053,2540,nan,auto_v1,nan,nan,nan,nan,nan,nan,nan,nan,nan,nan,nan,nan,nan,nan,nan,nan,nan,nan,nan,nan,nan,nan,nan,nan,2015-04-19 23:54:49.253130,noise_volcano,BOR.PF_20150419235449_NO
PF,BOR,EH,-21.246882,55.706053,2540,nan,auto_v1,nan,nan,nan,nan,nan,nan,nan,nan,nan,nan,nan,nan,nan,nan,nan,nan,nan,nan,nan,nan,nan,nan,nan,nan,2015-04-19 23:56:59.183130,noise_volcano,BOR.PF_20150419235659_NO
PF,BOR,EH,-21.246882,55.706053,2540,nan,auto_v1,nan,nan,nan,nan,nan,nan,nan,nan,nan,nan,nan,nan,nan,nan,nan,nan,nan,nan,nan,nan,nan,nan,nan,nan,2015-04-19 23:59:32.683130,noise_volcano,BOR.PF_20150419235932_NO
PF,BOR,EH,-21.246882,55.706053,2540,nan,auto_v1,nan,nan,nan,nan,nan,nan,nan,nan,nan,nan,nan,nan,nan,nan,nan,nan,nan,nan,nan,nan,nan,nan,nan,nan,2015-04-20 07:33:27.333130,noise_volcano,BOR.PF_20150420073327_NO
PF,BOR,EH,-21.246882,55.706053,2540,nan,auto_v1,nan,nan,nan,nan,nan,nan,nan,nan,nan,nan,nan,nan,nan,nan,nan,nan,nan,nan,nan,nan,nan,nan,nan,nan,2015-04-20 07:36:01.923130,noise_volcano,BOR.PF_20150420073601_NO
PF,BOR,EH,-21.246882,55.706053,2540,nan,auto_v1,nan,nan,nan,nan,nan,nan,nan,nan,nan,nan,nan,nan,nan,nan,nan,nan,nan,nan,nan,nan,nan,nan,nan,nan,2015-04-20 07:40:53.893130,noise_volcano,BOR.PF_20150420074053_NO
PF,BOR,EH,-21.246882,55.706053,2540,nan,auto_v1,nan,nan,nan,nan,nan,nan,nan,nan,nan,nan,nan,nan,nan,nan,nan,nan,nan,nan,nan,nan,nan,nan,nan,nan,2015-04-20 07:43:10.563130,noise_volcano,BOR.PF_20150420074310_NO
PF,BOR,EH,-21.246882,55.706053,2540,nan,auto_v1,nan,nan,nan,nan,nan,nan,nan,nan,nan,nan,nan,nan,nan,nan,nan,nan,nan,nan,nan,nan,nan,nan,nan,nan,2015-04-20 07:49:23.333130,noise_volcano,BOR.PF_20150420074923_NO
PF,BOR,EH,-21.246882,55.706053,2540,nan,auto_v1,nan,nan,nan,nan,nan,nan,nan,nan,nan,nan,nan,nan,nan,nan,nan,nan,nan,nan,nan,nan,nan,nan,nan,nan,2015-04-20 07:50:32.653130,noise_volcano,BOR.PF_20150420075032_NO
PF,BOR,EH,-21.246882,55.706053,2540,nan,auto_v1,nan,nan,nan,nan,nan,nan,nan,nan,nan,nan,nan,nan,nan,nan,nan,nan,nan,nan,nan,nan,nan,nan,nan,nan,2015-04-20 08:06:35.303130,noise_volcano,BOR.PF_20150420080635_NO
PF,BOR,EH,-21.246882,55.706053,2540,nan,auto_v1,nan,nan,nan,nan,nan,nan,nan,nan,nan,nan,nan,nan,nan,nan,nan,nan,nan,nan,nan,nan,nan,nan,nan,nan,2015-04-20 08:08:53.503130,noise_volcano,BOR.PF_20150420080853_NO
PF,BOR,EH,-21.246882,55.706053,2540,nan,auto_v1,nan,nan,nan,nan,nan,nan,nan,nan,nan,nan,nan,nan,nan,nan,nan,nan,nan,nan,nan,nan,nan,nan,nan,nan,2015-04-20 10:16:09.303130,noise_volcano,BOR.PF_20150420101609_NO
PF,BOR,EH,-21.246882,55.706053,2540,nan,auto_v1,nan,nan,nan,nan,nan,nan,nan,nan,nan,nan,nan,nan,nan,nan,nan,nan,nan,nan,nan,nan,nan,nan,nan,nan,2015-04-20 10:18:39.313130,noise_volcano,BOR.PF_20150420101839_NO
PF,BOR,EH,-21.246882,55.706053,2540,nan,auto_v1,nan,nan,nan,nan,nan,nan,nan,nan,nan,nan,nan,nan,nan,nan,nan,nan,nan,nan,nan,nan,nan,nan,nan,nan,2015-04-20 12:03:29.673130,noise_volcano,BOR.PF_20150420120329_NO
PF,BOR,EH,-21.246882,55.706053,2540,nan,auto_v1,nan,nan,nan,nan,nan,nan,nan,nan,nan,nan,nan,nan,nan,nan,nan,nan,nan,nan,nan,nan,nan,nan,nan,nan,2015-04-20 12:06:02.783130,noise_volcano,BOR.PF_20150420120602_NO
PF,BOR,EH,-21.246882,55.706053,2540,nan,auto_v1,nan,nan,nan,nan,nan,nan,nan,nan,nan,nan,nan,nan,nan,nan,nan,nan,nan,nan,nan,nan,nan,nan,nan,nan,2015-04-20 12:48:40.313129,noise_volcano,BOR.PF_20150420124840_NO
PF,BOR,EH,-21.246882,55.706053,2540,nan,auto_v1,nan,nan,nan,nan,nan,nan,nan,nan,nan,nan,nan,nan,nan,nan,nan,nan,nan,nan,nan,nan,nan,nan,nan,nan,2015-04-20 12:51:24.173129,noise_volcano,BOR.PF_20150420125124_NO
PF,BOR,EH,-21.246882,55.706053,2540,nan,auto_v1,nan,nan,nan,nan,nan,nan,nan,nan,nan,nan,nan,nan,nan,nan,nan,nan,nan,nan,nan,nan,nan,nan,nan,nan,2015-04-20 15:27:48.073131,noise_volcano,BOR.PF_20150420152748_NO
PF,BOR,EH,-21.246882,55.706053,2540,nan,auto_v1,nan,nan,nan,nan,nan,nan,nan,nan,nan,nan,nan,nan,nan,nan,nan,nan,nan,nan,nan,nan,nan,nan,nan,nan,2015-04-20 15:30:38.263131,noise_volcano,BOR.PF_20150420153038_NO
PF,BOR,EH,-21.246882,55.706053,2540,nan,auto_v1,nan,nan,nan,nan,nan,nan,nan,nan,nan,nan,nan,nan,nan,nan,nan,nan,nan,nan,nan,nan,nan,nan,nan,nan,2015-04-20 15:48:43.023131,noise_volcano,BOR.PF_20150420154843_NO
PF,BOR,EH,-21.246882,55.706053,2540,nan,auto_v1,nan,nan,nan,nan,nan,nan,nan,nan,nan,nan,nan,nan,nan,nan,nan,nan,nan,nan,nan,nan,nan,nan,nan,nan,2015-04-21 01:24:15.313129,noise_volcano,BOR.PF_20150421012415_NO
PF,BOR,EH,-21.246882,55.706053,2540,nan,auto_v1,nan,nan,nan,nan,nan,nan,nan,nan,nan,nan,nan,nan,nan,nan,nan,nan,nan,nan,nan,nan,nan,nan,nan,nan,2015-04-21 01:24:58.533129,noise_volcano,BOR.PF_20150421012458_NO
PF,BOR,EH,-21.246882,55.706053,2540,nan,auto_v1,nan,nan,nan,nan,nan,nan,nan,nan,nan,nan,nan,nan,nan,nan,nan,nan,nan,nan,nan,nan,nan,nan,nan,nan,2015-04-21 01:39:24.703129,noise_volcano,BOR.PF_20150421013924_NO
PF,BOR,EH,-21.246882,55.706053,2540,nan,auto_v1,nan,nan,nan,nan,nan,nan,nan,nan,nan,nan,nan,nan,nan,nan,nan,nan,nan,nan,nan,nan,nan,nan,nan,nan,2015-04-21 01:41:58.113129,noise_volcano,BOR.PF_20150421014158_NO
PF,BOR,EH,-21.246882,55.706053,2540,nan,auto_v1,nan,nan,nan,nan,nan,nan,nan,nan,nan,nan,nan,nan,nan,nan,nan,nan,nan,nan,nan,nan,nan,nan,nan,nan,2015-04-21 01:53:47.263130,noise_volcano,BOR.PF_20150421015347_NO
PF,BOR,EH,-21.246882,55.706053,2540,nan,auto_v1,nan,nan,nan,nan,nan,nan,nan,nan,nan,nan,nan,nan,nan,nan,nan,nan,nan,nan,nan,nan,nan,nan,nan,nan,2015-04-21 02:44:58.223129,noise_volcano,BOR.PF_20150421024458_NO
PF,BOR,EH,-21.246882,55.706053,2540,nan,auto_v1,nan,nan,nan,nan,nan,nan,nan,nan,nan,nan,nan,nan,nan,nan,nan,nan,nan,nan,nan,nan,nan,nan,nan,nan,2015-04-21 03:11:05.843130,noise_volcano,BOR.PF_20150421031105_NO
PF,BOR,EH,-21.246882,55.706053,2540,nan,auto_v1,nan,nan,nan,nan,nan,nan,nan,nan,nan,nan,nan,nan,nan,nan,nan,nan,nan,nan,nan,nan,nan,nan,nan,nan,2015-04-21 03:16:44.053130,noise_volcano,BOR.PF_20150421031644_NO
PF,BOR,EH,-21.246882,55.706053,2540,nan,auto_v1,nan,nan,nan,nan,nan,nan,nan,nan,nan,nan,nan,nan,nan,nan,nan,nan,nan,nan,nan,nan,nan,nan,nan,nan,2015-04-22 15:17:41.863130,noise_volcano,BOR.PF_20150422151741_NO
PF,BOR,EH,-21.246882,55.706053,2540,nan,auto_v1,nan,nan,nan,nan,nan,nan,nan,nan,nan,nan,nan,nan,nan,nan,nan,nan,nan,nan,nan,nan,nan,nan,nan,nan,2015-04-22 15:21:31.293131,noise_volcano,BOR.PF_20150422152131_NO
PF,BOR,EH,-21.246882,55.706053,2540,nan,auto_v1,nan,nan,nan,nan,nan,nan,nan,nan,nan,nan,nan,nan,nan,nan,nan,nan,nan,nan,nan,nan,nan,nan,nan,nan,2015-04-22 15:34:20.373130,noise_volcano,BOR.PF_20150422153420_NO
PF,BOR,EH,-21.246882,55.706053,2540,nan,auto_v1,nan,nan,nan,nan,nan,nan,nan,nan,nan,nan,nan,nan,nan,nan,nan,nan,nan,nan,nan,nan,nan,nan,nan,nan,2015-04-22 15:36:41.063131,noise_volcano,BOR.PF_20150422153641_NO
PF,BOR,EH,-21.246882,55.706053,2540,nan,auto_v1,nan,nan,nan,nan,nan,nan,nan,nan,nan,nan,nan,nan,nan,nan,nan,nan,nan,nan,nan,nan,nan,nan,nan,nan,2015-04-22 16:09:39.753130,noise_volcano,BOR.PF_20150422160939_NO
PF,BOR,EH,-21.246882,55.706053,2540,nan,auto_v1,nan,nan,nan,nan,nan,nan,nan,nan,nan,nan,nan,nan,nan,nan,nan,nan,nan,nan,nan,nan,nan,nan,nan,nan,2015-04-22 16:30:23.083131,noise_volcano,BOR.PF_20150422163023_NO
PF,BOR,EH,-21.246882,55.706053,2540,nan,auto_v1,nan,nan,nan,nan,nan,nan,nan,nan,nan,nan,nan,nan,nan,nan,nan,nan,nan,nan,nan,nan,nan,nan,nan,nan,2015-04-22 16:32:58.413130,noise_volcano,BOR.PF_20150422163258_NO
PF,BOR,EH,-21.246882,55.706053,2540,nan,auto_v1,nan,nan,nan,nan,nan,nan,nan,nan,nan,nan,nan,nan,nan,nan,nan,nan,nan,nan,nan,nan,nan,nan,nan,nan,2015-04-22 20:14:39.803130,noise_volcano,BOR.PF_20150422201439_NO
PF,BOR,EH,-21.246882,55.706053,2540,nan,auto_v1,nan,nan,nan,nan,nan,nan,nan,nan,nan,nan,nan,nan,nan,nan,nan,nan,nan,nan,nan,nan,nan,nan,nan,nan,2015-04-22 20:17:18.973130,noise_volcano,BOR.PF_20150422201718_NO
PF,BOR,EH,-21.246882,55.706053,2540,nan,auto_v1,nan,nan,nan,nan,nan,nan,nan,nan,nan,nan,nan,nan,nan,nan,nan,nan,nan,nan,nan,nan,nan,nan,nan,nan,2015-04-22 21:55:22.573130,noise_volcano,BOR.PF_20150422215522_NO
PF,BOR,EH,-21.246882,55.706053,2540,nan,auto_v1,nan,nan,nan,nan,nan,nan,nan,nan,nan,nan,nan,nan,nan,nan,nan,nan,nan,nan,nan,nan,nan,nan,nan,nan,2015-04-22 22:14:13.423130,noise_volcano,BOR.PF_20150422221413_NO
PF,BOR,EH,-21.246882,55.706053,2540,nan,auto_v1,nan,nan,nan,nan,nan,nan,nan,nan,nan,nan,nan,nan,nan,nan,nan,nan,nan,nan,nan,nan,nan,nan,nan,nan,2015-04-22 22:16:36.873130,noise_volcano,BOR.PF_20150422221636_NO
PF,BOR,EH,-21.246882,55.706053,2540,nan,auto_v1,nan,nan,nan,nan,nan,nan,nan,nan,nan,nan,nan,nan,nan,nan,nan,nan,nan,nan,nan,nan,nan,nan,nan,nan,2015-04-23 00:53:27.243130,noise_volcano,BOR.PF_20150423005327_NO
PF,BOR,EH,-21.246882,55.706053,2540,nan,auto_v1,nan,nan,nan,nan,nan,nan,nan,nan,nan,nan,nan,nan,nan,nan,nan,nan,nan,nan,nan,nan,nan,nan,nan,nan,2015-04-23 09:07:06.813130,noise_volcano,BOR.PF_20150423090706_NO
PF,BOR,EH,-21.246882,55.706053,2540,nan,auto_v1,nan,nan,nan,nan,nan,nan,nan,nan,nan,nan,nan,nan,nan,nan,nan,nan,nan,nan,nan,nan,nan,nan,nan,nan,2015-04-23 09:09:37.213130,noise_volcano,BOR.PF_20150423090937_NO
PF,BOR,EH,-21.246882,55.706053,2540,nan,auto_v1,nan,nan,nan,nan,nan,nan,nan,nan,nan,nan,nan,nan,nan,nan,nan,nan,nan,nan,nan,nan,nan,nan,nan,nan,2015-04-23 14:55:00.753130,noise_volcano,BOR.PF_20150423145500_NO
PF,BOR,EH,-21.246882,55.706053,2540,nan,auto_v1,nan,nan,nan,nan,nan,nan,nan,nan,nan,nan,nan,nan,nan,nan,nan,nan,nan,nan,nan,nan,nan,nan,nan,nan,2015-04-23 19:39:48.633130,noise_volcano,BOR.PF_20150423193948_NO
PF,BOR,EH,-21.246882,55.706053,2540,nan,auto_v1,nan,nan,nan,nan,nan,nan,nan,nan,nan,nan,nan,nan,nan,nan,nan,nan,nan,nan,nan,nan,nan,nan,nan,nan,2015-04-24 20:11:59.623130,noise_volcano,BOR.PF_20150424201159_NO
PF,BOR,EH,-21.246882,55.706053,2540,nan,auto_v1,nan,nan,nan,nan,nan,nan,nan,nan,nan,nan,nan,nan,nan,nan,nan,nan,nan,nan,nan,nan,nan,nan,nan,nan,2015-04-24 22:03:18.583130,noise_volcano,BOR.PF_20150424220318_NO
PF,BOR,EH,-21.246882,55.706053,2540,nan,auto_v1,nan,nan,nan,nan,nan,nan,nan,nan,nan,nan,nan,nan,nan,nan,nan,nan,nan,nan,nan,nan,nan,nan,nan,nan,2015-04-24 22:25:00.573130,noise_volcano,BOR.PF_20150424222500_NO
PF,BOR,EH,-21.246882,55.706053,2540,nan,auto_v1,nan,nan,nan,nan,nan,nan,nan,nan,nan,nan,nan,nan,nan,nan,nan,nan,nan,nan,nan,nan,nan,nan,nan,nan,2015-04-24 23:21:59.133130,noise_volcano,BOR.PF_20150424232159_NO
PF,BOR,EH,-21.246882,55.706053,2540,nan,auto_v1,nan,nan,nan,nan,nan,nan,nan,nan,nan,nan,nan,nan,nan,nan,nan,nan,nan,nan,nan,nan,nan,nan,nan,nan,2015-04-24 23:24:23.563130,noise_volcano,BOR.PF_20150424232423_NO
PF,BOR,EH,-21.246882,55.706053,2540,nan,auto_v1,nan,nan,nan,nan,nan,nan,nan,nan,nan,nan,nan,nan,nan,nan,nan,nan,nan,nan,nan,nan,nan,nan,nan,nan,2015-04-25 07:44:33.633130,noise_volcano,BOR.PF_20150425074433_NO
PF,BOR,EH,-21.246882,55.706053,2540,nan,auto_v1,nan,nan,nan,nan,nan,nan,nan,nan,nan,nan,nan,nan,nan,nan,nan,nan,nan,nan,nan,nan,nan,nan,nan,nan,2015-04-25 10:09:26.233130,noise_volcano,BOR.PF_20150425100926_NO
PF,BOR,EH,-21.246882,55.706053,2540,nan,auto_v1,nan,nan,nan,nan,nan,nan,nan,nan,nan,nan,nan,nan,nan,nan,nan,nan,nan,nan,nan,nan,nan,nan,nan,nan,2015-04-25 11:51:13.463130,noise_volcano,BOR.PF_20150425115113_NO
PF,BOR,EH,-21.246882,55.706053,2540,nan,auto_v1,nan,nan,nan,nan,nan,nan,nan,nan,nan,nan,nan,nan,nan,nan,nan,nan,nan,nan,nan,nan,nan,nan,nan,nan,2015-04-25 11:57:04.893130,noise_volcano,BOR.PF_20150425115704_NO
PF,BOR,EH,-21.246882,55.706053,2540,nan,auto_v1,nan,nan,nan,nan,nan,nan,nan,nan,nan,nan,nan,nan,nan,nan,nan,nan,nan,nan,nan,nan,nan,nan,nan,nan,2015-04-25 11:59:46.043130,noise_volcano,BOR.PF_20150425115946_NO
PF,BOR,EH,-21.246882,55.706053,2540,nan,auto_v1,nan,nan,nan,nan,nan,nan,nan,nan,nan,nan,nan,nan,nan,nan,nan,nan,nan,nan,nan,nan,nan,nan,nan,nan,2015-04-25 15:47:11.663131,noise_volcano,BOR.PF_20150425154711_NO
PF,BOR,EH,-21.246882,55.706053,2540,nan,auto_v1,nan,nan,nan,nan,nan,nan,nan,nan,nan,nan,nan,nan,nan,nan,nan,nan,nan,nan,nan,nan,nan,nan,nan,nan,2015-04-25 15:49:41.883131,noise_volcano,BOR.PF_20150425154941_NO
PF,BOR,EH,-21.246882,55.706053,2540,nan,auto_v1,nan,nan,nan,nan,nan,nan,nan,nan,nan,nan,nan,nan,nan,nan,nan,nan,nan,nan,nan,nan,nan,nan,nan,nan,2015-04-25 15:52:52.373131,noise_volcano,BOR.PF_20150425155252_NO
PF,BOR,EH,-21.246882,55.706053,2540,nan,auto_v1,nan,nan,nan,nan,nan,nan,nan,nan,nan,nan,nan,nan,nan,nan,nan,nan,nan,nan,nan,nan,nan,nan,nan,nan,2015-04-25 15:53:19.753131,noise_volcano,BOR.PF_20150425155319_NO
PF,BOR,EH,-21.246882,55.706053,2540,nan,auto_v1,nan,nan,nan,nan,nan,nan,nan,nan,nan,nan,nan,nan,nan,nan,nan,nan,nan,nan,nan,nan,nan,nan,nan,nan,2015-04-25 15:53:25.633131,noise_volcano,BOR.PF_20150425155325_NO
PF,BOR,EH,-21.246882,55.706053,2540,nan,auto_v1,nan,nan,nan,nan,nan,nan,nan,nan,nan,nan,nan,nan,nan,nan,nan,nan,nan,nan,nan,nan,nan,nan,nan,nan,2015-04-25 15:56:14.003131,noise_volcano,BOR.PF_20150425155614_NO
PF,BOR,EH,-21.246882,55.706053,2540,nan,auto_v1,nan,nan,nan,nan,nan,nan,nan,nan,nan,nan,nan,nan,nan,nan,nan,nan,nan,nan,nan,nan,nan,nan,nan,nan,2015-04-25 19:05:55.203130,noise_volcano,BOR.PF_20150425190555_NO
PF,BOR,EH,-21.246882,55.706053,2540,nan,auto_v1,nan,nan,nan,nan,nan,nan,nan,nan,nan,nan,nan,nan,nan,nan,nan,nan,nan,nan,nan,nan,nan,nan,nan,nan,2015-04-25 19:35:47.093130,noise_volcano,BOR.PF_20150425193547_NO
PF,BOR,EH,-21.246882,55.706053,2540,nan,auto_v1,nan,nan,nan,nan,nan,nan,nan,nan,nan,nan,nan,nan,nan,nan,nan,nan,nan,nan,nan,nan,nan,nan,nan,nan,2015-04-26 08:55:26.463130,noise_volcano,BOR.PF_20150426085526_NO
PF,BOR,EH,-21.246882,55.706053,2540,[2878],manual,nan,nan,nan,nan,nan,nan,nan,nan,nan,nan,nan,nan,nan,nan,nan,nan,nan,nan,nan,nan,nan,nan,nan,[4350],2015-04-26 08:56:14.863130,earthquake_volcano_VT1,BOR.PF_20150426085614_VC
PF,BOR,EH,-21.246882,55.706053,2540,nan,auto_v1,nan,nan,nan,nan,nan,nan,nan,nan,nan,nan,nan,nan,nan,nan,nan,nan,nan,nan,nan,nan,nan,nan,nan,nan,2015-04-26 08:58:02.273130,noise_volcano,BOR.PF_20150426085802_NO
PF,BOR,EH,-21.246882,55.706053,2540,[883],auto_v1,nan,nan,nan,nan,nan,nan,nan,nan,nan,nan,nan,nan,nan,nan,nan,nan,nan,nan,nan,nan,nan,nan,nan,[2280],2015-04-26 09:54:23.293130,earthquake_volcano_VT1,BOR.PF_20150426095423_VC
PF,BOR,EH,-21.246882,55.706053,2540,nan,auto_v1,nan,nan,nan,nan,nan,nan,nan,nan,nan,nan,nan,nan,nan,nan,nan,nan,nan,nan,nan,nan,nan,nan,nan,nan,2015-04-26 09:55:48.843130,noise_volcano,BOR.PF_20150426095548_NO
PF,BOR,EH,-21.246882,55.706053,2540,nan,auto_v1,nan,nan,nan,nan,nan,nan,nan,nan,nan,nan,nan,nan,nan,nan,nan,nan,nan,nan,nan,nan,nan,nan,nan,nan,2015-04-26 15:30:32.363130,noise_volcano,BOR.PF_20150426153032_NO
PF,BOR,EH,-21.246882,55.706053,2540,nan,auto_v1,nan,nan,nan,nan,nan,nan,nan,nan,nan,nan,nan,nan,nan,nan,nan,nan,nan,nan,nan,nan,nan,nan,nan,nan,2015-04-26 15:32:59.153131,noise_volcano,BOR.PF_20150426153259_NO
PF,BOR,EH,-21.246882,55.706053,2540,nan,auto_v1,nan,nan,nan,nan,nan,nan,nan,nan,nan,nan,nan,nan,nan,nan,nan,nan,nan,nan,nan,nan,nan,nan,nan,nan,2015-04-26 18:25:33.073130,noise_volcano,BOR.PF_20150426182533_NO
PF,BOR,EH,-21.246882,55.706053,2540,nan,auto_v1,nan,nan,nan,nan,nan,nan,nan,nan,nan,nan,nan,nan,nan,nan,nan,nan,nan,nan,nan,nan,nan,nan,nan,nan,2015-04-26 19:26:44.123130,noise_volcano,BOR.PF_20150426192644_NO
PF,BOR,EH,-21.246882,55.706053,2540,nan,auto_v1,nan,nan,nan,nan,nan,nan,nan,nan,nan,nan,nan,nan,nan,nan,nan,nan,nan,nan,nan,nan,nan,nan,nan,nan,2015-04-26 19:29:16.703131,noise_volcano,BOR.PF_20150426192916_NO
PF,BOR,EH,-21.246882,55.706053,2540,nan,auto_v1,nan,nan,nan,nan,nan,nan,nan,nan,nan,nan,nan,nan,nan,nan,nan,nan,nan,nan,nan,nan,nan,nan,nan,nan,2015-04-26 21:57:24.463130,noise_volcano,BOR.PF_20150426215724_NO
PF,BOR,EH,-21.246882,55.706053,2540,nan,auto_v1,nan,nan,nan,nan,nan,nan,nan,nan,nan,nan,nan,nan,nan,nan,nan,nan,nan,nan,nan,nan,nan,nan,nan,nan,2015-04-26 21:59:47.493129,noise_volcano,BOR.PF_20150426215947_NO
PF,BOR,EH,-21.246882,55.706053,2540,nan,auto_v1,nan,nan,nan,nan,nan,nan,nan,nan,nan,nan,nan,nan,nan,nan,nan,nan,nan,nan,nan,nan,nan,nan,nan,nan,2015-04-26 22:18:28.303129,noise_volcano,BOR.PF_20150426221828_NO
PF,BOR,EH,-21.246882,55.706053,2540,[1497],auto_v1,nan,nan,nan,nan,nan,nan,nan,nan,nan,nan,nan,nan,nan,nan,nan,nan,nan,nan,nan,nan,nan,nan,nan,[2649],2015-04-26 22:19:32.803130,earthquake_volcano_VT1,BOR.PF_20150426221932_VC
PF,BOR,EH,-21.246882,55.706053,2540,nan,auto_v1,nan,nan,nan,nan,nan,nan,nan,nan,nan,nan,nan,nan,nan,nan,nan,nan,nan,nan,nan,nan,nan,nan,nan,nan,2015-04-26 22:21:08.933130,noise_volcano,BOR.PF_20150426222108_NO
PF,BOR,EH,-21.246882,55.706053,2540,nan,auto_v1,nan,nan,nan,nan,nan,nan,nan,nan,nan,nan,nan,nan,nan,nan,nan,nan,nan,nan,nan,nan,nan,nan,nan,nan,2015-04-26 23:09:03.243130,noise_volcano,BOR.PF_20150426230903_NO
PF,BOR,EH,-21.246882,55.706053,2540,nan,auto_v1,nan,nan,nan,nan,nan,nan,nan,nan,nan,nan,nan,nan,nan,nan,nan,nan,nan,nan,nan,nan,nan,nan,nan,nan,2015-04-26 23:50:32.803130,noise_volcano,BOR.PF_20150426235032_NO
PF,BOR,EH,-21.246882,55.706053,2540,nan,auto_v1,nan,nan,nan,nan,nan,nan,nan,nan,nan,nan,nan,nan,nan,nan,nan,nan,nan,nan,nan,nan,nan,nan,nan,nan,2015-04-27 03:13:52.913130,noise_volcano,BOR.PF_20150427031352_NO
PF,BOR,EH,-21.246882,55.706053,2540,[2916 5634],manual,nan,nan,nan,nan,nan,nan,nan,nan,nan,nan,nan,nan,nan,nan,nan,nan,nan,nan,nan,nan,nan,nan,nan,[4233 5999],2015-04-27 03:14:39.543130,earthquake_volcano_VT1-None,BOR.PF_20150427031439_VC
PF,BOR,EH,-21.246882,55.706053,2540,nan,auto_v1,nan,nan,nan,nan,nan,nan,nan,nan,nan,nan,nan,nan,nan,nan,nan,nan,nan,nan,nan,nan,nan,nan,nan,nan,2015-04-27 03:16:14.613130,noise_volcano,BOR.PF_20150427031614_NO
PF,BOR,EH,-21.246882,55.706053,2540,nan,auto_v1,nan,nan,nan,nan,nan,nan,nan,nan,nan,nan,nan,nan,nan,nan,nan,nan,nan,nan,nan,nan,nan,nan,nan,nan,2015-04-27 11:13:57.313130,noise_volcano,BOR.PF_20150427111357_NO
PF,BOR,EH,-21.246882,55.706053,2540,nan,auto_v1,nan,nan,nan,nan,nan,nan,nan,nan,nan,nan,nan,nan,nan,nan,nan,nan,nan,nan,nan,nan,nan,nan,nan,nan,2015-04-27 11:26:13.923129,noise_volcano,BOR.PF_20150427112613_NO
PF,BOR,EH,-21.246882,55.706053,2540,nan,auto_v1,nan,nan,nan,nan,nan,nan,nan,nan,nan,nan,nan,nan,nan,nan,nan,nan,nan,nan,nan,nan,nan,nan,nan,nan,2015-04-27 11:28:40.653129,noise_volcano,BOR.PF_20150427112840_NO
PF,BOR,EH,-21.246882,55.706053,2540,[900],auto_v1,nan,nan,nan,nan,nan,nan,nan,nan,nan,nan,nan,nan,nan,nan,nan,nan,nan,nan,nan,nan,nan,nan,nan,[2007],2015-04-27 14:11:39.133130,earthquake_volcano_VT1,BOR.PF_20150427141139_VC
PF,BOR,EH,-21.246882,55.706053,2540,nan,auto_v1,nan,nan,nan,nan,nan,nan,nan,nan,nan,nan,nan,nan,nan,nan,nan,nan,nan,nan,nan,nan,nan,nan,nan,nan,2015-04-27 14:12:24.673129,noise_volcano,BOR.PF_20150427141224_NO
PF,BOR,EH,-21.246882,55.706053,2540,nan,auto_v1,nan,nan,nan,nan,nan,nan,nan,nan,nan,nan,nan,nan,nan,nan,nan,nan,nan,nan,nan,nan,nan,nan,nan,nan,2015-04-27 15:08:13.713131,noise_volcano,BOR.PF_20150427150813_NO
