network_code,receiver_code,receiver_type,receiver_latitude,receiver_longitude,receiver_elevation_m,p_arrival_sample,p_status,p_weight,p_travel_sec,s_arrival_sample,s_status,s_weight,source_id,source_origin_time,source_origin_uncertainty_sec,source_latitude,source_longitude,source_error_sec,source_gap_deg,source_horizontal_uncertainty_km,source_depth_km,source_depth_uncertainty_km,source_magnitude,source_magnitude_type,source_magnitude_author,source_mechanism_strike_dip_rake,source_distance_deg,source_distance_km,back_azimuth_deg,snr_db,coda_end_sample,trace_start_time,trace_category,trace_name
PF,BOR,EH,-21.246882,55.706053,2540,nan,auto_v1,nan,nan,nan,nan,nan,nan,nan,nan,nan,nan,nan,nan,nan,nan,nan,nan,nan,nan,nan,nan,nan,nan,nan,nan,2015-01-24 00:22:30.723130,noise_volcano,BOR.PF_20150124002230_NO
PF,BOR,EH,-21.246882,55.706053,2540,nan,auto_v1,nan,nan,nan,nan,nan,nan,nan,nan,nan,nan,nan,nan,nan,nan,nan,nan,nan,nan,nan,nan,nan,nan,nan,nan,2015-01-24 00:35:28.893130,noise_volcano,BOR.PF_20150124003528_NO
PF,BOR,EH,-21.246882,55.706053,2540,nan,auto_v1,nan,nan,nan,nan,nan,nan,nan,nan,nan,nan,nan,nan,nan,nan,nan,nan,nan,nan,nan,nan,nan,nan,nan,nan,2015-01-24 00:35:59.013130,noise_volcano,BOR.PF_20150124003559_NO
PF,BOR,EH,-21.246882,55.706053,2540,nan,auto_v1,nan,nan,nan,nan,nan,nan,nan,nan,nan,nan,nan,nan,nan,nan,nan,nan,nan,nan,nan,nan,nan,nan,nan,nan,2015-01-24 00:38:38.333130,noise_volcano,BOR.PF_20150124003838_NO
PF,BOR,EH,-21.246882,55.706053,2540,nan,auto_v1,nan,nan,nan,nan,nan,nan,nan,nan,nan,nan,nan,nan,nan,nan,nan,nan,nan,nan,nan,nan,nan,nan,nan,nan,2015-01-24 00:54:08.293130,noise_volcano,BOR.PF_20150124005408_NO
PF,BOR,EH,-21.246882,55.706053,2540,nan,auto_v1,nan,nan,nan,nan,nan,nan,nan,nan,nan,nan,nan,nan,nan,nan,nan,nan,nan,nan,nan,nan,nan,nan,nan,nan,2015-01-24 00:54:41.133130,noise_volcano,BOR.PF_20150124005441_NO
PF,BOR,EH,-21.246882,55.706053,2540,nan,auto_v1,nan,nan,nan,nan,nan,nan,nan,nan,nan,nan,nan,nan,nan,nan,nan,nan,nan,nan,nan,nan,nan,nan,nan,nan,2015-01-24 00:58:11.413130,noise_volcano,BOR.PF_20150124005811_NO
PF,BOR,EH,-21.246882,55.706053,2540,nan,auto_v1,nan,nan,nan,nan,nan,nan,nan,nan,nan,nan,nan,nan,nan,nan,nan,nan,nan,nan,nan,nan,nan,nan,nan,nan,2015-01-24 01:00:07.833130,noise_volcano,BOR.PF_20150124010007_NO
PF,BOR,EH,-21.246882,55.706053,2540,nan,auto_v1,nan,nan,nan,nan,nan,nan,nan,nan,nan,nan,nan,nan,nan,nan,nan,nan,nan,nan,nan,nan,nan,nan,nan,nan,2015-01-24 01:02:42.623130,noise_volcano,BOR.PF_20150124010242_NO
PF,BOR,EH,-21.246882,55.706053,2540,nan,auto_v1,nan,nan,nan,nan,nan,nan,nan,nan,nan,nan,nan,nan,nan,nan,nan,nan,nan,nan,nan,nan,nan,nan,nan,nan,2015-01-24 01:04:08.923130,noise_volcano,BOR.PF_20150124010408_NO
PF,BOR,EH,-21.246882,55.706053,2540,nan,auto_v1,nan,nan,nan,nan,nan,nan,nan,nan,nan,nan,nan,nan,nan,nan,nan,nan,nan,nan,nan,nan,nan,nan,nan,nan,2015-01-24 01:08:26.723130,noise_volcano,BOR.PF_20150124010826_NO
PF,BOR,EH,-21.246882,55.706053,2540,nan,auto_v1,nan,nan,nan,nan,nan,nan,nan,nan,nan,nan,nan,nan,nan,nan,nan,nan,nan,nan,nan,nan,nan,nan,nan,nan,2015-01-24 01:11:04.083130,noise_volcano,BOR.PF_20150124011104_NO
PF,BOR,EH,-21.246882,55.706053,2540,nan,auto_v1,nan,nan,nan,nan,nan,nan,nan,nan,nan,nan,nan,nan,nan,nan,nan,nan,nan,nan,nan,nan,nan,nan,nan,nan,2015-01-24 01:12:52.723130,noise_volcano,BOR.PF_20150124011252_NO
PF,BOR,EH,-21.246882,55.706053,2540,nan,auto_v1,nan,nan,nan,nan,nan,nan,nan,nan,nan,nan,nan,nan,nan,nan,nan,nan,nan,nan,nan,nan,nan,nan,nan,nan,2015-01-24 01:13:52.543130,noise_volcano,BOR.PF_20150124011352_NO
PF,BOR,EH,-21.246882,55.706053,2540,nan,auto_v1,nan,nan,nan,nan,nan,nan,nan,nan,nan,nan,nan,nan,nan,nan,nan,nan,nan,nan,nan,nan,nan,nan,nan,nan,2015-01-24 01:17:24.973130,noise_volcano,BOR.PF_20150124011724_NO
PF,BOR,EH,-21.246882,55.706053,2540,nan,auto_v1,nan,nan,nan,nan,nan,nan,nan,nan,nan,nan,nan,nan,nan,nan,nan,nan,nan,nan,nan,nan,nan,nan,nan,nan,2015-01-24 01:19:34.983130,noise_volcano,BOR.PF_20150124011934_NO
PF,BOR,EH,-21.246882,55.706053,2540,nan,auto_v1,nan,nan,nan,nan,nan,nan,nan,nan,nan,nan,nan,nan,nan,nan,nan,nan,nan,nan,nan,nan,nan,nan,nan,nan,2015-01-24 01:20:44.753130,noise_volcano,BOR.PF_20150124012044_NO
PF,BOR,EH,-21.246882,55.706053,2540,nan,auto_v1,nan,nan,nan,nan,nan,nan,nan,nan,nan,nan,nan,nan,nan,nan,nan,nan,nan,nan,nan,nan,nan,nan,nan,nan,2015-01-24 01:28:01.043130,noise_volcano,BOR.PF_20150124012801_NO
PF,BOR,EH,-21.246882,55.706053,2540,nan,auto_v1,nan,nan,nan,nan,nan,nan,nan,nan,nan,nan,nan,nan,nan,nan,nan,nan,nan,nan,nan,nan,nan,nan,nan,nan,2015-01-24 01:40:50.263130,noise_volcano,BOR.PF_20150124014050_NO
PF,BOR,EH,-21.246882,55.706053,2540,nan,auto_v1,nan,nan,nan,nan,nan,nan,nan,nan,nan,nan,nan,nan,nan,nan,nan,nan,nan,nan,nan,nan,nan,nan,nan,nan,2015-01-24 01:42:50.713130,noise_volcano,BOR.PF_20150124014250_NO
PF,BOR,EH,-21.246882,55.706053,2540,nan,auto_v1,nan,nan,nan,nan,nan,nan,nan,nan,nan,nan,nan,nan,nan,nan,nan,nan,nan,nan,nan,nan,nan,nan,nan,nan,2015-01-24 01:43:27.373130,noise_volcano,BOR.PF_20150124014327_NO
PF,BOR,EH,-21.246882,55.706053,2540,nan,auto_v1,nan,nan,nan,nan,nan,nan,nan,nan,nan,nan,nan,nan,nan,nan,nan,nan,nan,nan,nan,nan,nan,nan,nan,nan,2015-01-24 01:44:09.503130,noise_volcano,BOR.PF_20150124014409_NO
PF,BOR,EH,-21.246882,55.706053,2540,nan,auto_v1,nan,nan,nan,nan,nan,nan,nan,nan,nan,nan,nan,nan,nan,nan,nan,nan,nan,nan,nan,nan,nan,nan,nan,nan,2015-01-24 01:44:13.623130,noise_volcano,BOR.PF_20150124014413_NO
PF,BOR,EH,-21.246882,55.706053,2540,nan,auto_v1,nan,nan,nan,nan,nan,nan,nan,nan,nan,nan,nan,nan,nan,nan,nan,nan,nan,nan,nan,nan,nan,nan,nan,nan,2015-01-24 01:49:50.463130,noise_volcano,BOR.PF_20150124014950_NO
PF,BOR,EH,-21.246882,55.706053,2540,nan,auto_v1,nan,nan,nan,nan,nan,nan,nan,nan,nan,nan,nan,nan,nan,nan,nan,nan,nan,nan,nan,nan,nan,nan,nan,nan,2015-01-24 01:51:03.303130,noise_volcano,BOR.PF_20150124015103_NO
PF,BOR,EH,-21.246882,55.706053,2540,nan,auto_v1,nan,nan,nan,nan,nan,nan,nan,nan,nan,nan,nan,nan,nan,nan,nan,nan,nan,nan,nan,nan,nan,nan,nan,nan,2015-01-24 01:51:30.523130,noise_volcano,BOR.PF_20150124015130_NO
PF,BOR,EH,-21.246882,55.706053,2540,nan,auto_v1,nan,nan,nan,nan,nan,nan,nan,nan,nan,nan,nan,nan,nan,nan,nan,nan,nan,nan,nan,nan,nan,nan,nan,nan,2015-01-24 01:53:00.323130,noise_volcano,BOR.PF_20150124015300_NO
PF,BOR,EH,-21.246882,55.706053,2540,nan,auto_v1,nan,nan,nan,nan,nan,nan,nan,nan,nan,nan,nan,nan,nan,nan,nan,nan,nan,nan,nan,nan,nan,nan,nan,nan,2015-01-24 01:54:23.373130,noise_volcano,BOR.PF_20150124015423_NO
PF,BOR,EH,-21.246882,55.706053,2540,nan,auto_v1,nan,nan,nan,nan,nan,nan,nan,nan,nan,nan,nan,nan,nan,nan,nan,nan,nan,nan,nan,nan,nan,nan,nan,nan,2015-01-24 02:00:20.803130,noise_volcano,BOR.PF_20150124020020_NO
PF,BOR,EH,-21.246882,55.706053,2540,nan,auto_v1,nan,nan,nan,nan,nan,nan,nan,nan,nan,nan,nan,nan,nan,nan,nan,nan,nan,nan,nan,nan,nan,nan,nan,nan,2015-01-24 02:00:49.253130,noise_volcano,BOR.PF_20150124020049_NO
PF,BOR,EH,-21.246882,55.706053,2540,nan,auto_v1,nan,nan,nan,nan,nan,nan,nan,nan,nan,nan,nan,nan,nan,nan,nan,nan,nan,nan,nan,nan,nan,nan,nan,nan,2015-01-24 02:05:02.973130,noise_volcano,BOR.PF_20150124020502_NO
PF,BOR,EH,-21.246882,55.706053,2540,nan,auto_v1,nan,nan,nan,nan,nan,nan,nan,nan,nan,nan,nan,nan,nan,nan,nan,nan,nan,nan,nan,nan,nan,nan,nan,nan,2015-01-24 02:05:33.003130,noise_volcano,BOR.PF_20150124020533_NO
PF,BOR,EH,-21.246882,55.706053,2540,nan,auto_v1,nan,nan,nan,nan,nan,nan,nan,nan,nan,nan,nan,nan,nan,nan,nan,nan,nan,nan,nan,nan,nan,nan,nan,nan,2015-01-24 02:07:37.413130,noise_volcano,BOR.PF_20150124020737_NO
PF,BOR,EH,-21.246882,55.706053,2540,nan,auto_v1,nan,nan,nan,nan,nan,nan,nan,nan,nan,nan,nan,nan,nan,nan,nan,nan,nan,nan,nan,nan,nan,nan,nan,nan,2015-01-24 02:10:18.803130,noise_volcano,BOR.PF_20150124021018_NO
PF,BOR,EH,-21.246882,55.706053,2540,nan,auto_v1,nan,nan,nan,nan,nan,nan,nan,nan,nan,nan,nan,nan,nan,nan,nan,nan,nan,nan,nan,nan,nan,nan,nan,nan,2015-01-24 02:23:13.303130,noise_volcano,BOR.PF_20150124022313_NO
PF,BOR,EH,-21.246882,55.706053,2540,nan,auto_v1,nan,nan,nan,nan,nan,nan,nan,nan,nan,nan,nan,nan,nan,nan,nan,nan,nan,nan,nan,nan,nan,nan,nan,nan,2015-01-24 02:27:39.523130,noise_volcano,BOR.PF_20150124022739_NO
PF,BOR,EH,-21.246882,55.706053,2540,nan,auto_v1,nan,nan,nan,nan,nan,nan,nan,nan,nan,nan,nan,nan,nan,nan,nan,nan,nan,nan,nan,nan,nan,nan,nan,nan,2015-01-24 02:38:11.803130,noise_volcano,BOR.PF_20150124023811_NO
PF,BOR,EH,-21.246882,55.706053,2540,nan,auto_v1,nan,nan,nan,nan,nan,nan,nan,nan,nan,nan,nan,nan,nan,nan,nan,nan,nan,nan,nan,nan,nan,nan,nan,nan,2015-01-24 02:49:22.373130,noise_volcano,BOR.PF_20150124024922_NO
PF,BOR,EH,-21.246882,55.706053,2540,nan,auto_v1,nan,nan,nan,nan,nan,nan,nan,nan,nan,nan,nan,nan,nan,nan,nan,nan,nan,nan,nan,nan,nan,nan,nan,nan,2015-01-24 02:55:46.173130,noise_volcano,BOR.PF_20150124025546_NO
PF,BOR,EH,-21.246882,55.706053,2540,nan,auto_v1,nan,nan,nan,nan,nan,nan,nan,nan,nan,nan,nan,nan,nan,nan,nan,nan,nan,nan,nan,nan,nan,nan,nan,nan,2015-01-24 03:01:16.423130,noise_volcano,BOR.PF_20150124030116_NO
PF,BOR,EH,-21.246882,55.706053,2540,nan,auto_v1,nan,nan,nan,nan,nan,nan,nan,nan,nan,nan,nan,nan,nan,nan,nan,nan,nan,nan,nan,nan,nan,nan,nan,nan,2015-01-24 03:15:59.633130,noise_volcano,BOR.PF_20150124031559_NO
PF,BOR,EH,-21.246882,55.706053,2540,nan,auto_v1,nan,nan,nan,nan,nan,nan,nan,nan,nan,nan,nan,nan,nan,nan,nan,nan,nan,nan,nan,nan,nan,nan,nan,nan,2015-01-24 03:26:23.613130,noise_volcano,BOR.PF_20150124032623_NO
PF,BOR,EH,-21.246882,55.706053,2540,[732],manual,nan,nan,nan,nan,nan,nan,nan,nan,nan,nan,nan,nan,nan,nan,nan,nan,nan,nan,nan,nan,nan,nan,nan,[1986],2015-01-24 03:37:36.583130,earthquake_volcano_None,BOR.PF_20150124033736_VC
PF,BOR,EH,-21.246882,55.706053,2540,nan,auto_v1,nan,nan,nan,nan,nan,nan,nan,nan,nan,nan,nan,nan,nan,nan,nan,nan,nan,nan,nan,nan,nan,nan,nan,nan,2015-01-24 05:04:50.803130,noise_volcano,BOR.PF_20150124050450_NO
PF,BOR,EH,-21.246882,55.706053,2540,nan,auto_v1,nan,nan,nan,nan,nan,nan,nan,nan,nan,nan,nan,nan,nan,nan,nan,nan,nan,nan,nan,nan,nan,nan,nan,nan,2015-01-24 05:11:09.313130,noise_volcano,BOR.PF_20150124051109_NO
PF,BOR,EH,-21.246882,55.706053,2540,nan,auto_v1,nan,nan,nan,nan,nan,nan,nan,nan,nan,nan,nan,nan,nan,nan,nan,nan,nan,nan,nan,nan,nan,nan,nan,nan,2015-01-24 05:22:07.653130,noise_volcano,BOR.PF_20150124052207_NO
PF,BOR,EH,-21.246882,55.706053,2540,nan,auto_v1,nan,nan,nan,nan,nan,nan,nan,nan,nan,nan,nan,nan,nan,nan,nan,nan,nan,nan,nan,nan,nan,nan,nan,nan,2015-01-24 05:29:59.743130,noise_volcano,BOR.PF_20150124052959_NO
PF,BOR,EH,-21.246882,55.706053,2540,nan,auto_v1,nan,nan,nan,nan,nan,nan,nan,nan,nan,nan,nan,nan,nan,nan,nan,nan,nan,nan,nan,nan,nan,nan,nan,nan,2015-01-24 05:32:24.253130,noise_volcano,BOR.PF_20150124053224_NO
PF,BOR,EH,-21.246882,55.706053,2540,nan,auto_v1,nan,nan,nan,nan,nan,nan,nan,nan,nan,nan,nan,nan,nan,nan,nan,nan,nan,nan,nan,nan,nan,nan,nan,nan,2015-01-24 06:00:39.043130,noise_volcano,BOR.PF_20150124060039_NO
PF,BOR,EH,-21.246882,55.706053,2540,nan,auto_v1,nan,nan,nan,nan,nan,nan,nan,nan,nan,nan,nan,nan,nan,nan,nan,nan,nan,nan,nan,nan,nan,nan,nan,nan,2015-01-24 06:01:33.823130,noise_volcano,BOR.PF_20150124060133_NO
PF,BOR,EH,-21.246882,55.706053,2540,nan,auto_v1,nan,nan,nan,nan,nan,nan,nan,nan,nan,nan,nan,nan,nan,nan,nan,nan,nan,nan,nan,nan,nan,nan,nan,nan,2015-01-24 06:02:05.073130,noise_volcano,BOR.PF_20150124060205_NO
PF,BOR,EH,-21.246882,55.706053,2540,[808],manual,nan,nan,nan,nan,nan,nan,nan,nan,nan,nan,nan,nan,nan,nan,nan,nan,nan,nan,nan,nan,nan,nan,nan,[4107],2015-01-24 06:29:52.433130,earthquake_volcano_TEC,BOR.PF_20150124062952_VC
PF,BOR,EH,-21.246882,55.706053,2540,nan,auto_v1,nan,nan,nan,nan,nan,nan,nan,nan,nan,nan,nan,nan,nan,nan,nan,nan,nan,nan,nan,nan,nan,nan,nan,nan,2015-01-24 08:18:53.223130,noise_volcano,BOR.PF_20150124081853_NO
PF,BOR,EH,-21.246882,55.706053,2540,nan,auto_v1,nan,nan,nan,nan,nan,nan,nan,nan,nan,nan,nan,nan,nan,nan,nan,nan,nan,nan,nan,nan,nan,nan,nan,nan,2015-01-24 08:25:59.623130,noise_volcano,BOR.PF_20150124082559_NO
PF,BOR,EH,-21.246882,55.706053,2540,[1456],manual,nan,nan,nan,nan,nan,nan,nan,nan,nan,nan,nan,nan,nan,nan,nan,nan,nan,nan,nan,nan,nan,nan,nan,[3932],2015-01-24 08:53:52.843130,earthquake_volcano_None,BOR.PF_20150124085352_VC
PF,BOR,EH,-21.246882,55.706053,2540,nan,auto_v1,nan,nan,nan,nan,nan,nan,nan,nan,nan,nan,nan,nan,nan,nan,nan,nan,nan,nan,nan,nan,nan,nan,nan,nan,2015-01-24 09:04:50.683130,noise_volcano,BOR.PF_20150124090450_NO
PF,BOR,EH,-21.246882,55.706053,2540,nan,auto_v1,nan,nan,nan,nan,nan,nan,nan,nan,nan,nan,nan,nan,nan,nan,nan,nan,nan,nan,nan,nan,nan,nan,nan,nan,2015-01-24 10:49:13.963130,noise_volcano,BOR.PF_20150124104913_NO
PF,BOR,EH,-21.246882,55.706053,2540,[1429],manual,nan,nan,nan,nan,nan,nan,nan,nan,nan,nan,nan,nan,nan,nan,nan,nan,nan,nan,nan,nan,nan,nan,nan,[3047],2015-01-24 12:13:51.803130,earthquake_volcano_None,BOR.PF_20150124121351_VC
PF,BOR,EH,-21.246882,55.706053,2540,[2471],manual,nan,nan,nan,nan,nan,nan,nan,nan,nan,nan,nan,nan,nan,nan,nan,nan,nan,nan,nan,nan,nan,nan,nan,[3743],2015-01-24 12:46:57.923130,earthquake_volcano_None,BOR.PF_20150124124657_VC
PF,BOR,EH,-21.246882,55.706053,2540,[1938],auto_v1,nan,nan,nan,nan,nan,nan,nan,nan,nan,nan,nan,nan,nan,nan,nan,nan,nan,nan,nan,nan,nan,nan,nan,[3852],2015-01-24 12:57:54.723130,earthquake_volcano_None,BOR.PF_20150124125754_VC
PF,BOR,EH,-21.246882,55.706053,2540,[746],manual,nan,nan,nan,nan,nan,nan,nan,nan,nan,nan,nan,nan,nan,nan,nan,nan,nan,nan,nan,nan,nan,nan,nan,[2746],2015-01-24 13:21:53.753130,earthquake_volcano_TEC,BOR.PF_20150124132153_VC
PF,BOR,EH,-21.246882,55.706053,2540,[2157],manual,nan,nan,nan,nan,nan,nan,nan,nan,nan,nan,nan,nan,nan,nan,nan,nan,nan,nan,nan,nan,nan,nan,nan,[3483],2015-01-24 14:04:15.653130,earthquake_volcano_LP1,BOR.PF_20150124140415_VC
PF,BOR,EH,-21.246882,55.706053,2540,nan,auto_v1,nan,nan,nan,nan,nan,nan,nan,nan,nan,nan,nan,nan,nan,nan,nan,nan,nan,nan,nan,nan,nan,nan,nan,nan,2015-01-24 14:44:19.733130,noise_volcano,BOR.PF_20150124144419_NO
PF,BOR,EH,-21.246882,55.706053,2540,nan,auto_v1,nan,nan,nan,nan,nan,nan,nan,nan,nan,nan,nan,nan,nan,nan,nan,nan,nan,nan,nan,nan,nan,nan,nan,nan,2015-01-24 16:08:34.623130,noise_volcano,BOR.PF_20150124160834_NO
PF,BOR,EH,-21.246882,55.706053,2540,nan,auto_v1,nan,nan,nan,nan,nan,nan,nan,nan,nan,nan,nan,nan,nan,nan,nan,nan,nan,nan,nan,nan,nan,nan,nan,nan,2015-01-24 16:13:01.703130,noise_volcano,BOR.PF_20150124161301_NO
PF,BOR,EH,-21.246882,55.706053,2540,nan,auto_v1,nan,nan,nan,nan,nan,nan,nan,nan,nan,nan,nan,nan,nan,nan,nan,nan,nan,nan,nan,nan,nan,nan,nan,nan,2015-01-24 16:58:57.453130,noise_volcano,BOR.PF_20150124165857_NO
PF,BOR,EH,-21.246882,55.706053,2540,nan,auto_v1,nan,nan,nan,nan,nan,nan,nan,nan,nan,nan,nan,nan,nan,nan,nan,nan,nan,nan,nan,nan,nan,nan,nan,nan,2015-01-24 17:07:53.733130,noise_volcano,BOR.PF_20150124170753_NO
PF,BOR,EH,-21.246882,55.706053,2540,nan,auto_v1,nan,nan,nan,nan,nan,nan,nan,nan,nan,nan,nan,nan,nan,nan,nan,nan,nan,nan,nan,nan,nan,nan,nan,nan,2015-01-24 17:08:04.003130,noise_volcano,BOR.PF_20150124170804_NO
PF,BOR,EH,-21.246882,55.706053,2540,nan,auto_v1,nan,nan,nan,nan,nan,nan,nan,nan,nan,nan,nan,nan,nan,nan,nan,nan,nan,nan,nan,nan,nan,nan,nan,nan,2015-01-24 17:43:08.623130,noise_volcano,BOR.PF_20150124174308_NO
PF,BOR,EH,-21.246882,55.706053,2540,[2924],auto_v1,nan,nan,nan,nan,nan,nan,nan,nan,nan,nan,nan,nan,nan,nan,nan,nan,nan,nan,nan,nan,nan,nan,nan,[3993],2015-01-24 17:55:50.763130,earthquake_volcano_None,BOR.PF_20150124175550_VC
PF,BOR,EH,-21.246882,55.706053,2540,nan,auto_v1,nan,nan,nan,nan,nan,nan,nan,nan,nan,nan,nan,nan,nan,nan,nan,nan,nan,nan,nan,nan,nan,nan,nan,nan,2015-01-24 18:14:13.793130,noise_volcano,BOR.PF_20150124181413_NO
PF,BOR,EH,-21.246882,55.706053,2540,nan,auto_v1,nan,nan,nan,nan,nan,nan,nan,nan,nan,nan,nan,nan,nan,nan,nan,nan,nan,nan,nan,nan,nan,nan,nan,nan,2015-01-24 18:27:43.803130,noise_volcano,BOR.PF_20150124182743_NO
PF,BOR,EH,-21.246882,55.706053,2540,nan,auto_v1,nan,nan,nan,nan,nan,nan,nan,nan,nan,nan,nan,nan,nan,nan,nan,nan,nan,nan,nan,nan,nan,nan,nan,nan,2015-01-24 18:28:15.543130,noise_volcano,BOR.PF_20150124182815_NO
PF,BOR,EH,-21.246882,55.706053,2540,nan,auto_v1,nan,nan,nan,nan,nan,nan,nan,nan,nan,nan,nan,nan,nan,nan,nan,nan,nan,nan,nan,nan,nan,nan,nan,nan,2015-01-24 18:29:12.113130,noise_volcano,BOR.PF_20150124182912_NO
PF,BOR,EH,-21.246882,55.706053,2540,nan,auto_v1,nan,nan,nan,nan,nan,nan,nan,nan,nan,nan,nan,nan,nan,nan,nan,nan,nan,nan,nan,nan,nan,nan,nan,nan,2015-01-24 18:40:54.133130,noise_volcano,BOR.PF_20150124184054_NO
PF,BOR,EH,-21.246882,55.706053,2540,nan,auto_v1,nan,nan,nan,nan,nan,nan,nan,nan,nan,nan,nan,nan,nan,nan,nan,nan,nan,nan,nan,nan,nan,nan,nan,nan,2015-01-24 18:40:58.493130,noise_volcano,BOR.PF_20150124184058_NO
PF,BOR,EH,-21.246882,55.706053,2540,nan,auto_v1,nan,nan,nan,nan,nan,nan,nan,nan,nan,nan,nan,nan,nan,nan,nan,nan,nan,nan,nan,nan,nan,nan,nan,nan,2015-01-24 18:47:13.403130,noise_volcano,BOR.PF_20150124184713_NO
PF,BOR,EH,-21.246882,55.706053,2540,nan,auto_v1,nan,nan,nan,nan,nan,nan,nan,nan,nan,nan,nan,nan,nan,nan,nan,nan,nan,nan,nan,nan,nan,nan,nan,nan,2015-01-24 19:00:05.913130,noise_volcano,BOR.PF_20150124190005_NO
PF,BOR,EH,-21.246882,55.706053,2540,nan,auto_v1,nan,nan,nan,nan,nan,nan,nan,nan,nan,nan,nan,nan,nan,nan,nan,nan,nan,nan,nan,nan,nan,nan,nan,nan,2015-01-24 19:22:42.193130,noise_volcano,BOR.PF_20150124192242_NO
PF,BOR,EH,-21.246882,55.706053,2540,nan,auto_v1,nan,nan,nan,nan,nan,nan,nan,nan,nan,nan,nan,nan,nan,nan,nan,nan,nan,nan,nan,nan,nan,nan,nan,nan,2015-01-24 19:35:38.333130,noise_volcano,BOR.PF_20150124193538_NO
PF,BOR,EH,-21.246882,55.706053,2540,nan,auto_v1,nan,nan,nan,nan,nan,nan,nan,nan,nan,nan,nan,nan,nan,nan,nan,nan,nan,nan,nan,nan,nan,nan,nan,nan,2015-01-24 19:35:39.323130,noise_volcano,BOR.PF_20150124193539_NO
PF,BOR,EH,-21.246882,55.706053,2540,nan,auto_v1,nan,nan,nan,nan,nan,nan,nan,nan,nan,nan,nan,nan,nan,nan,nan,nan,nan,nan,nan,nan,nan,nan,nan,nan,2015-01-24 19:51:35.423130,noise_volcano,BOR.PF_20150124195135_NO
PF,BOR,EH,-21.246882,55.706053,2540,[1244],manual,nan,nan,nan,nan,nan,nan,nan,nan,nan,nan,nan,nan,nan,nan,nan,nan,nan,nan,nan,nan,nan,nan,nan,[3204],2015-01-24 20:19:46.583130,earthquake_volcano_VT1,BOR.PF_20150124201946_VC
PF,BOR,EH,-21.246882,55.706053,2540,[2633],manual,nan,nan,nan,nan,nan,nan,nan,nan,nan,nan,nan,nan,nan,nan,nan,nan,nan,nan,nan,nan,nan,nan,nan,[3824],2015-01-24 20:33:14.113130,earthquake_volcano_VT1,BOR.PF_20150124203314_VC
PF,BOR,EH,-21.246882,55.706053,2540,[2049],manual,nan,nan,nan,nan,nan,nan,nan,nan,nan,nan,nan,nan,nan,nan,nan,nan,nan,nan,nan,nan,nan,nan,nan,[4521],2015-01-24 20:44:09.393130,earthquake_volcano_VT1,BOR.PF_20150124204409_VC
PF,BOR,EH,-21.246882,55.706053,2540,[3478],manual,nan,nan,nan,nan,nan,nan,nan,nan,nan,nan,nan,nan,nan,nan,nan,nan,nan,nan,nan,nan,nan,nan,nan,[4840],2015-01-24 20:45:32.033130,earthquake_volcano_None,BOR.PF_20150124204532_VC
PF,BOR,EH,-21.246882,55.706053,2540,nan,auto_v1,nan,nan,nan,nan,nan,nan,nan,nan,nan,nan,nan,nan,nan,nan,nan,nan,nan,nan,nan,nan,nan,nan,nan,nan,2015-01-24 21:05:53.533130,noise_volcano,BOR.PF_20150124210553_NO
PF,BOR,EH,-21.246882,55.706053,2540,nan,auto_v1,nan,nan,nan,nan,nan,nan,nan,nan,nan,nan,nan,nan,nan,nan,nan,nan,nan,nan,nan,nan,nan,nan,nan,nan,2015-01-24 21:06:18.053130,noise_volcano,BOR.PF_20150124210618_NO
PF,BOR,EH,-21.246882,55.706053,2540,nan,auto_v1,nan,nan,nan,nan,nan,nan,nan,nan,nan,nan,nan,nan,nan,nan,nan,nan,nan,nan,nan,nan,nan,nan,nan,nan,2015-01-24 21:10:25.963130,noise_volcano,BOR.PF_20150124211025_NO
PF,BOR,EH,-21.246882,55.706053,2540,[0],auto_v1,nan,nan,nan,nan,nan,nan,nan,nan,nan,nan,nan,nan,nan,nan,nan,nan,nan,nan,nan,nan,nan,nan,nan,[5999],2015-01-24 22:19:54.323130,earthquake_volcano_PIS,BOR.PF_20150124221954_VC
