network_code,receiver_code,receiver_type,receiver_latitude,receiver_longitude,receiver_elevation_m,p_arrival_sample,p_status,p_weight,p_travel_sec,s_arrival_sample,s_status,s_weight,source_id,source_origin_time,source_origin_uncertainty_sec,source_latitude,source_longitude,source_error_sec,source_gap_deg,source_horizontal_uncertainty_km,source_depth_km,source_depth_uncertainty_km,source_magnitude,source_magnitude_type,source_magnitude_author,source_mechanism_strike_dip_rake,source_distance_deg,source_distance_km,back_azimuth_deg,snr_db,coda_end_sample,trace_start_time,trace_category,trace_name
PF,BOR,EH,-21.246882,55.706053,2540,nan,auto_v1,nan,nan,nan,nan,nan,nan,nan,nan,nan,nan,nan,nan,nan,nan,nan,nan,nan,nan,nan,nan,nan,nan,nan,nan,2015-01-24 23:47:41.993130,noise_volcano,BOR.PF_20150124234741_NO
PF,BOR,EH,-21.246882,55.706053,2540,nan,auto_v1,nan,nan,nan,nan,nan,nan,nan,nan,nan,nan,nan,nan,nan,nan,nan,nan,nan,nan,nan,nan,nan,nan,nan,nan,2015-01-26 19:09:12.403130,noise_volcano,BOR.PF_20150126190912_NO
PF,BOR,EH,-21.246882,55.706053,2540,[710],manual,nan,nan,nan,nan,nan,nan,nan,nan,nan,nan,nan,nan,nan,nan,nan,nan,nan,nan,nan,nan,nan,nan,nan,[3600],2015-01-26 19:17:03.403130,earthquake_volcano_VT1,BOR.PF_20150126191703_VC
PF,BOR,EH,-21.246882,55.706053,2540,[2656],manual,nan,nan,nan,nan,nan,nan,nan,nan,nan,nan,nan,nan,nan,nan,nan,nan,nan,nan,nan,nan,nan,nan,nan,[4022],2015-01-26 19:23:47.173130,earthquake_volcano_VT1,BOR.PF_20150126192347_VC
PF,BOR,EH,-21.246882,55.706053,2540,[2525],manual,nan,nan,nan,nan,nan,nan,nan,nan,nan,nan,nan,nan,nan,nan,nan,nan,nan,nan,nan,nan,nan,nan,nan,[5334],2015-01-26 19:28:57.633130,earthquake_volcano_VT1,BOR.PF_20150126192857_VC
PF,BOR,EH,-21.246882,55.706053,2540,nan,auto_v1,nan,nan,nan,nan,nan,nan,nan,nan,nan,nan,nan,nan,nan,nan,nan,nan,nan,nan,nan,nan,nan,nan,nan,nan,2015-01-26 20:00:34.973130,noise_volcano,BOR.PF_20150126200034_NO
PF,BOR,EH,-21.246882,55.706053,2540,nan,auto_v1,nan,nan,nan,nan,nan,nan,nan,nan,nan,nan,nan,nan,nan,nan,nan,nan,nan,nan,nan,nan,nan,nan,nan,nan,2015-01-26 20:01:19.673130,noise_volcano,BOR.PF_20150126200119_NO
PF,BOR,EH,-21.246882,55.706053,2540,nan,auto_v1,nan,nan,nan,nan,nan,nan,nan,nan,nan,nan,nan,nan,nan,nan,nan,nan,nan,nan,nan,nan,nan,nan,nan,nan,2015-01-26 20:13:26.193130,noise_volcano,BOR.PF_20150126201326_NO
PF,BOR,EH,-21.246882,55.706053,2540,nan,auto_v1,nan,nan,nan,nan,nan,nan,nan,nan,nan,nan,nan,nan,nan,nan,nan,nan,nan,nan,nan,nan,nan,nan,nan,nan,2015-01-26 20:33:14.183130,noise_volcano,BOR.PF_20150126203314_NO
PF,BOR,EH,-21.246882,55.706053,2540,nan,auto_v1,nan,nan,nan,nan,nan,nan,nan,nan,nan,nan,nan,nan,nan,nan,nan,nan,nan,nan,nan,nan,nan,nan,nan,nan,2015-01-26 20:35:21.013130,noise_volcano,BOR.PF_20150126203521_NO
PF,BOR,EH,-21.246882,55.706053,2540,nan,auto_v1,nan,nan,nan,nan,nan,nan,nan,nan,nan,nan,nan,nan,nan,nan,nan,nan,nan,nan,nan,nan,nan,nan,nan,nan,2015-01-26 20:39:49.873130,noise_volcano,BOR.PF_20150126203949_NO
PF,BOR,EH,-21.246882,55.706053,2540,nan,auto_v1,nan,nan,nan,nan,nan,nan,nan,nan,nan,nan,nan,nan,nan,nan,nan,nan,nan,nan,nan,nan,nan,nan,nan,nan,2015-01-26 21:05:29.093130,noise_volcano,BOR.PF_20150126210529_NO
PF,BOR,EH,-21.246882,55.706053,2540,nan,auto_v1,nan,nan,nan,nan,nan,nan,nan,nan,nan,nan,nan,nan,nan,nan,nan,nan,nan,nan,nan,nan,nan,nan,nan,nan,2015-01-26 21:13:03.103130,noise_volcano,BOR.PF_20150126211303_NO
PF,BOR,EH,-21.246882,55.706053,2540,[1883],manual,nan,nan,nan,nan,nan,nan,nan,nan,nan,nan,nan,nan,nan,nan,nan,nan,nan,nan,nan,nan,nan,nan,nan,[4175],2015-01-26 22:37:05.253129,earthquake_volcano_VT1,BOR.PF_20150126223705_VC
PF,BOR,EH,-21.246882,55.706053,2540,[615],manual,nan,nan,nan,nan,nan,nan,nan,nan,nan,nan,nan,nan,nan,nan,nan,nan,nan,nan,nan,nan,nan,nan,nan,[2597],2015-01-26 23:01:49.063130,earthquake_volcano_None,BOR.PF_20150126230149_VC
PF,BOR,EH,-21.246882,55.706053,2540,nan,auto_v1,nan,nan,nan,nan,nan,nan,nan,nan,nan,nan,nan,nan,nan,nan,nan,nan,nan,nan,nan,nan,nan,nan,nan,nan,2015-01-26 23:52:12.463130,noise_volcano,BOR.PF_20150126235212_NO
PF,BOR,EH,-21.246882,55.706053,2540,nan,auto_v1,nan,nan,nan,nan,nan,nan,nan,nan,nan,nan,nan,nan,nan,nan,nan,nan,nan,nan,nan,nan,nan,nan,nan,nan,2015-01-26 23:54:35.743130,noise_volcano,BOR.PF_20150126235435_NO
PF,BOR,EH,-21.246882,55.706053,2540,nan,auto_v1,nan,nan,nan,nan,nan,nan,nan,nan,nan,nan,nan,nan,nan,nan,nan,nan,nan,nan,nan,nan,nan,nan,nan,nan,2015-01-26 23:55:22.143130,noise_volcano,BOR.PF_20150126235522_NO
PF,BOR,EH,-21.246882,55.706053,2540,[485],manual,nan,nan,nan,nan,nan,nan,nan,nan,nan,nan,nan,nan,nan,nan,nan,nan,nan,nan,nan,nan,nan,nan,nan,[4355],2015-01-27 13:10:23.413130,earthquake_volcano_None,BOR.PF_20150127131023_VC
PF,BOR,EH,-21.246882,55.706053,2540,[4665],manual,nan,nan,nan,nan,nan,nan,nan,nan,nan,nan,nan,nan,nan,nan,nan,nan,nan,nan,nan,nan,nan,nan,nan,[5986],2015-01-27 13:29:19.593130,earthquake_volcano_None,BOR.PF_20150127132919_VC
PF,BOR,EH,-21.246882,55.706053,2540,[4085],manual,nan,nan,nan,nan,nan,nan,nan,nan,nan,nan,nan,nan,nan,nan,nan,nan,nan,nan,nan,nan,nan,nan,nan,[5991],2015-01-27 13:34:56.943130,earthquake_volcano_None,BOR.PF_20150127133456_VC
PF,BOR,EH,-21.246882,55.706053,2540,[0],auto_v1,nan,nan,nan,nan,nan,nan,nan,nan,nan,nan,nan,nan,nan,nan,nan,nan,nan,nan,nan,nan,nan,nan,nan,[5999],2015-01-27 13:38:22.563130,earthquake_volcano_PIS,BOR.PF_20150127133822_VC
PF,BOR,EH,-21.246882,55.706053,2540,[1487],manual,nan,nan,nan,nan,nan,nan,nan,nan,nan,nan,nan,nan,nan,nan,nan,nan,nan,nan,nan,nan,nan,nan,nan,[2494],2015-01-27 13:58:18.843130,earthquake_volcano_VT1,BOR.PF_20150127135818_VC
PF,BOR,EH,-21.246882,55.706053,2540,nan,auto_v1,nan,nan,nan,nan,nan,nan,nan,nan,nan,nan,nan,nan,nan,nan,nan,nan,nan,nan,nan,nan,nan,nan,nan,nan,2015-01-28 12:43:25.473130,noise_volcano,BOR.PF_20150128124325_NO
PF,BOR,EH,-21.246882,55.706053,2540,nan,auto_v1,nan,nan,nan,nan,nan,nan,nan,nan,nan,nan,nan,nan,nan,nan,nan,nan,nan,nan,nan,nan,nan,nan,nan,nan,2015-01-30 17:27:46.403131,noise_volcano,BOR.PF_20150130172746_NO
PF,BOR,EH,-21.246882,55.706053,2540,nan,auto_v1,nan,nan,nan,nan,nan,nan,nan,nan,nan,nan,nan,nan,nan,nan,nan,nan,nan,nan,nan,nan,nan,nan,nan,nan,2015-01-30 17:41:23.643131,noise_volcano,BOR.PF_20150130174123_NO
PF,BOR,EH,-21.246882,55.706053,2540,[687],manual,nan,nan,nan,nan,nan,nan,nan,nan,nan,nan,nan,nan,nan,nan,nan,nan,nan,nan,nan,nan,nan,nan,nan,[3164],2015-01-30 17:50:35.473131,earthquake_volcano_VT1,BOR.PF_20150130175035_VC
PF,BOR,EH,-21.246882,55.706053,2540,nan,auto_v1,nan,nan,nan,nan,nan,nan,nan,nan,nan,nan,nan,nan,nan,nan,nan,nan,nan,nan,nan,nan,nan,nan,nan,nan,2015-01-30 18:03:07.343130,noise_volcano,BOR.PF_20150130180307_NO
PF,BOR,EH,-21.246882,55.706053,2540,nan,auto_v1,nan,nan,nan,nan,nan,nan,nan,nan,nan,nan,nan,nan,nan,nan,nan,nan,nan,nan,nan,nan,nan,nan,nan,nan,2015-01-30 18:18:06.753130,noise_volcano,BOR.PF_20150130181806_NO
PF,BOR,EH,-21.246882,55.706053,2540,[1074],manual,nan,nan,nan,nan,nan,nan,nan,nan,nan,nan,nan,nan,nan,nan,nan,nan,nan,nan,nan,nan,nan,nan,nan,[2764],2015-01-30 18:47:31.513130,earthquake_volcano_None,BOR.PF_20150130184731_VC
PF,BOR,EH,-21.246882,55.706053,2540,nan,auto_v1,nan,nan,nan,nan,nan,nan,nan,nan,nan,nan,nan,nan,nan,nan,nan,nan,nan,nan,nan,nan,nan,nan,nan,nan,2015-01-30 18:58:21.453130,noise_volcano,BOR.PF_20150130185821_NO
PF,BOR,EH,-21.246882,55.706053,2540,nan,auto_v1,nan,nan,nan,nan,nan,nan,nan,nan,nan,nan,nan,nan,nan,nan,nan,nan,nan,nan,nan,nan,nan,nan,nan,nan,2015-01-30 19:06:45.943131,noise_volcano,BOR.PF_20150130190645_NO
PF,BOR,EH,-21.246882,55.706053,2540,nan,auto_v1,nan,nan,nan,nan,nan,nan,nan,nan,nan,nan,nan,nan,nan,nan,nan,nan,nan,nan,nan,nan,nan,nan,nan,nan,2015-01-30 19:54:17.813131,noise_volcano,BOR.PF_20150130195417_NO
PF,BOR,EH,-21.246882,55.706053,2540,nan,auto_v1,nan,nan,nan,nan,nan,nan,nan,nan,nan,nan,nan,nan,nan,nan,nan,nan,nan,nan,nan,nan,nan,nan,nan,nan,2015-01-30 20:20:07.683130,noise_volcano,BOR.PF_20150130202007_NO
PF,BOR,EH,-21.246882,55.706053,2540,nan,auto_v1,nan,nan,nan,nan,nan,nan,nan,nan,nan,nan,nan,nan,nan,nan,nan,nan,nan,nan,nan,nan,nan,nan,nan,nan,2015-01-30 20:20:37.153130,noise_volcano,BOR.PF_20150130202037_NO
PF,BOR,EH,-21.246882,55.706053,2540,[4265],manual,nan,nan,nan,nan,nan,nan,nan,nan,nan,nan,nan,nan,nan,nan,nan,nan,nan,nan,nan,nan,nan,nan,nan,[4952],2015-01-30 20:45:23.993130,earthquake_volcano_None,BOR.PF_20150130204523_VC
PF,BOR,EH,-21.246882,55.706053,2540,nan,auto_v1,nan,nan,nan,nan,nan,nan,nan,nan,nan,nan,nan,nan,nan,nan,nan,nan,nan,nan,nan,nan,nan,nan,nan,nan,2015-01-30 20:58:50.463130,noise_volcano,BOR.PF_20150130205850_NO
PF,BOR,EH,-21.246882,55.706053,2540,nan,auto_v1,nan,nan,nan,nan,nan,nan,nan,nan,nan,nan,nan,nan,nan,nan,nan,nan,nan,nan,nan,nan,nan,nan,nan,nan,2015-01-30 21:41:22.033132,noise_volcano,BOR.PF_20150130214122_NO
PF,BOR,EH,-21.246882,55.706053,2540,[624],manual,nan,nan,nan,nan,nan,nan,nan,nan,nan,nan,nan,nan,nan,nan,nan,nan,nan,nan,nan,nan,nan,nan,nan,[4400],2015-01-30 22:25:48.853131,earthquake_volcano_VT1,BOR.PF_20150130222548_VC
PF,BOR,EH,-21.246882,55.706053,2540,nan,auto_v1,nan,nan,nan,nan,nan,nan,nan,nan,nan,nan,nan,nan,nan,nan,nan,nan,nan,nan,nan,nan,nan,nan,nan,nan,2015-01-30 22:37:25.803131,noise_volcano,BOR.PF_20150130223725_NO
PF,BOR,EH,-21.246882,55.706053,2540,[543],manual,nan,nan,nan,nan,nan,nan,nan,nan,nan,nan,nan,nan,nan,nan,nan,nan,nan,nan,nan,nan,nan,nan,nan,[2016],2015-02-01 11:23:32.013130,earthquake_volcano_VT1,BOR.PF_20150201112332_VC
PF,BOR,EH,-21.246882,55.706053,2540,nan,auto_v1,nan,nan,nan,nan,nan,nan,nan,nan,nan,nan,nan,nan,nan,nan,nan,nan,nan,nan,nan,nan,nan,nan,nan,nan,2015-02-01 21:38:25.823130,noise_volcano,BOR.PF_20150201213825_NO
PF,BOR,EH,-21.246882,55.706053,2540,nan,auto_v1,nan,nan,nan,nan,nan,nan,nan,nan,nan,nan,nan,nan,nan,nan,nan,nan,nan,nan,nan,nan,nan,nan,nan,nan,2015-02-01 21:56:43.813129,noise_volcano,BOR.PF_20150201215643_NO
PF,BOR,EH,-21.246882,55.706053,2540,[3569],manual,nan,nan,nan,nan,nan,nan,nan,nan,nan,nan,nan,nan,nan,nan,nan,nan,nan,nan,nan,nan,nan,nan,nan,[4354],2015-02-01 22:50:03.723130,earthquake_volcano_None,BOR.PF_20150201225003_VC
PF,BOR,EH,-21.246882,55.706053,2540,[485],manual,nan,nan,nan,nan,nan,nan,nan,nan,nan,nan,nan,nan,nan,nan,nan,nan,nan,nan,nan,nan,nan,nan,nan,[1743],2015-02-02 00:04:28.673129,earthquake_volcano_VT1,BOR.PF_20150202000428_VC
PF,BOR,EH,-21.246882,55.706053,2540,[2531],auto_v1,nan,nan,nan,nan,nan,nan,nan,nan,nan,nan,nan,nan,nan,nan,nan,nan,nan,nan,nan,nan,nan,nan,nan,[3643],2015-02-02 01:29:38.163130,earthquake_volcano_VT1,BOR.PF_20150202012938_VC
PF,BOR,EH,-21.246882,55.706053,2540,nan,auto_v1,nan,nan,nan,nan,nan,nan,nan,nan,nan,nan,nan,nan,nan,nan,nan,nan,nan,nan,nan,nan,nan,nan,nan,nan,2015-02-02 01:31:21.403130,noise_volcano,BOR.PF_20150202013121_NO
PF,BOR,EH,-21.246882,55.706053,2540,nan,auto_v1,nan,nan,nan,nan,nan,nan,nan,nan,nan,nan,nan,nan,nan,nan,nan,nan,nan,nan,nan,nan,nan,nan,nan,nan,2015-02-02 01:38:44.383130,noise_volcano,BOR.PF_20150202013844_NO
PF,BOR,EH,-21.246882,55.706053,2540,nan,auto_v1,nan,nan,nan,nan,nan,nan,nan,nan,nan,nan,nan,nan,nan,nan,nan,nan,nan,nan,nan,nan,nan,nan,nan,nan,2015-02-02 04:38:01.173128,noise_volcano,BOR.PF_20150202043801_NO
PF,BOR,EH,-21.246882,55.706053,2540,nan,auto_v1,nan,nan,nan,nan,nan,nan,nan,nan,nan,nan,nan,nan,nan,nan,nan,nan,nan,nan,nan,nan,nan,nan,nan,nan,2015-02-02 07:21:43.583130,noise_volcano,BOR.PF_20150202072143_NO
PF,BOR,EH,-21.246882,55.706053,2540,[1566],manual,nan,nan,nan,nan,nan,nan,nan,nan,nan,nan,nan,nan,nan,nan,nan,nan,nan,nan,nan,nan,nan,nan,nan,[3466],2015-02-02 07:22:44.613130,earthquake_volcano_VT1,BOR.PF_20150202072244_VC
PF,BOR,EH,-21.246882,55.706053,2540,nan,auto_v1,nan,nan,nan,nan,nan,nan,nan,nan,nan,nan,nan,nan,nan,nan,nan,nan,nan,nan,nan,nan,nan,nan,nan,nan,2015-02-02 14:35:55.593130,noise_volcano,BOR.PF_20150202143555_NO
PF,BOR,EH,-21.246882,55.706053,2540,[3369],auto_v1,nan,nan,nan,nan,nan,nan,nan,nan,nan,nan,nan,nan,nan,nan,nan,nan,nan,nan,nan,nan,nan,nan,nan,[4556],2015-02-02 14:36:46.733130,earthquake_volcano_VT1,BOR.PF_20150202143646_VC
PF,BOR,EH,-21.246882,55.706053,2540,nan,auto_v1,nan,nan,nan,nan,nan,nan,nan,nan,nan,nan,nan,nan,nan,nan,nan,nan,nan,nan,nan,nan,nan,nan,nan,nan,2015-02-02 14:38:35.383130,noise_volcano,BOR.PF_20150202143835_NO
PF,BOR,EH,-21.246882,55.706053,2540,nan,auto_v1,nan,nan,nan,nan,nan,nan,nan,nan,nan,nan,nan,nan,nan,nan,nan,nan,nan,nan,nan,nan,nan,nan,nan,nan,2015-02-03 01:29:52.553130,noise_volcano,BOR.PF_20150203012952_NO
PF,BOR,EH,-21.246882,55.706053,2540,nan,auto_v1,nan,nan,nan,nan,nan,nan,nan,nan,nan,nan,nan,nan,nan,nan,nan,nan,nan,nan,nan,nan,nan,nan,nan,nan,2015-02-03 06:16:27.233129,noise_volcano,BOR.PF_20150203061627_NO
PF,BOR,EH,-21.246882,55.706053,2540,nan,auto_v1,nan,nan,nan,nan,nan,nan,nan,nan,nan,nan,nan,nan,nan,nan,nan,nan,nan,nan,nan,nan,nan,nan,nan,nan,2015-02-03 09:57:44.843129,noise_volcano,BOR.PF_20150203095744_NO
PF,BOR,EH,-21.246882,55.706053,2540,[937],manual,nan,nan,nan,nan,nan,nan,nan,nan,nan,nan,nan,nan,nan,nan,nan,nan,nan,nan,nan,nan,nan,nan,nan,[2009],2015-02-03 09:58:43.233129,earthquake_volcano_VT1,BOR.PF_20150203095843_VC
PF,BOR,EH,-21.246882,55.706053,2540,nan,auto_v1,nan,nan,nan,nan,nan,nan,nan,nan,nan,nan,nan,nan,nan,nan,nan,nan,nan,nan,nan,nan,nan,nan,nan,nan,2015-02-03 10:00:00.853129,noise_volcano,BOR.PF_20150203100000_NO
PF,BOR,EH,-21.246882,55.706053,2540,nan,auto_v1,nan,nan,nan,nan,nan,nan,nan,nan,nan,nan,nan,nan,nan,nan,nan,nan,nan,nan,nan,nan,nan,nan,nan,nan,2015-02-03 14:45:38.803129,noise_volcano,BOR.PF_20150203144538_NO
PF,BOR,EH,-21.246882,55.706053,2540,nan,auto_v1,nan,nan,nan,nan,nan,nan,nan,nan,nan,nan,nan,nan,nan,nan,nan,nan,nan,nan,nan,nan,nan,nan,nan,nan,2015-02-03 14:49:25.103129,noise_volcano,BOR.PF_20150203144925_NO
PF,BOR,EH,-21.246882,55.706053,2540,[3185],auto_v1,nan,nan,nan,nan,nan,nan,nan,nan,nan,nan,nan,nan,nan,nan,nan,nan,nan,nan,nan,nan,nan,nan,nan,[5207],2015-02-03 16:21:08.603131,earthquake_volcano_VT1,BOR.PF_20150203162108_VC
PF,BOR,EH,-21.246882,55.706053,2540,nan,auto_v1,nan,nan,nan,nan,nan,nan,nan,nan,nan,nan,nan,nan,nan,nan,nan,nan,nan,nan,nan,nan,nan,nan,nan,nan,2015-02-03 16:22:49.273131,noise_volcano,BOR.PF_20150203162249_NO
PF,BOR,EH,-21.246882,55.706053,2540,nan,auto_v1,nan,nan,nan,nan,nan,nan,nan,nan,nan,nan,nan,nan,nan,nan,nan,nan,nan,nan,nan,nan,nan,nan,nan,nan,2015-02-03 22:46:40.093130,noise_volcano,BOR.PF_20150203224640_NO
PF,BOR,EH,-21.246882,55.706053,2540,[2701],manual,nan,nan,nan,nan,nan,nan,nan,nan,nan,nan,nan,nan,nan,nan,nan,nan,nan,nan,nan,nan,nan,nan,nan,[4462],2015-02-03 23:09:53.553129,earthquake_volcano_VT1,BOR.PF_20150203230953_VC
PF,BOR,EH,-21.246882,55.706053,2540,nan,auto_v1,nan,nan,nan,nan,nan,nan,nan,nan,nan,nan,nan,nan,nan,nan,nan,nan,nan,nan,nan,nan,nan,nan,nan,nan,2015-02-03 23:12:05.873129,noise_volcano,BOR.PF_20150203231205_NO
PF,BOR,EH,-21.246882,55.706053,2540,[4139],manual,nan,nan,nan,nan,nan,nan,nan,nan,nan,nan,nan,nan,nan,nan,nan,nan,nan,nan,nan,nan,nan,nan,nan,[5217],2015-02-03 23:25:22.173129,earthquake_volcano_VT1,BOR.PF_20150203232522_VC
PF,BOR,EH,-21.246882,55.706053,2540,[3537],manual,nan,nan,nan,nan,nan,nan,nan,nan,nan,nan,nan,nan,nan,nan,nan,nan,nan,nan,nan,nan,nan,nan,nan,[4278],2015-02-03 23:30:37.673129,earthquake_volcano_VT1,BOR.PF_20150203233037_VC
PF,BOR,EH,-21.246882,55.706053,2540,nan,auto_v1,nan,nan,nan,nan,nan,nan,nan,nan,nan,nan,nan,nan,nan,nan,nan,nan,nan,nan,nan,nan,nan,nan,nan,nan,2015-02-03 23:41:55.673130,noise_volcano,BOR.PF_20150203234155_NO
PF,BOR,EH,-21.246882,55.706053,2540,nan,auto_v1,nan,nan,nan,nan,nan,nan,nan,nan,nan,nan,nan,nan,nan,nan,nan,nan,nan,nan,nan,nan,nan,nan,nan,nan,2015-02-03 23:44:41.833130,noise_volcano,BOR.PF_20150203234441_NO
PF,BOR,EH,-21.246882,55.706053,2540,[2296],manual,nan,nan,nan,nan,nan,nan,nan,nan,nan,nan,nan,nan,nan,nan,nan,nan,nan,nan,nan,nan,nan,nan,nan,[4934],2015-02-03 23:49:49.003129,earthquake_volcano_VT1,BOR.PF_20150203234949_VC
PF,BOR,EH,-21.246882,55.706053,2540,nan,auto_v1,nan,nan,nan,nan,nan,nan,nan,nan,nan,nan,nan,nan,nan,nan,nan,nan,nan,nan,nan,nan,nan,nan,nan,nan,2015-02-03 23:50:44.843129,noise_volcano,BOR.PF_20150203235044_NO
PF,BOR,EH,-21.246882,55.706053,2540,nan,auto_v1,nan,nan,nan,nan,nan,nan,nan,nan,nan,nan,nan,nan,nan,nan,nan,nan,nan,nan,nan,nan,nan,nan,nan,nan,2015-02-03 23:54:22.783130,noise_volcano,BOR.PF_20150203235422_NO
PF,BOR,EH,-21.246882,55.706053,2540,[3078],manual,nan,nan,nan,nan,nan,nan,nan,nan,nan,nan,nan,nan,nan,nan,nan,nan,nan,nan,nan,nan,nan,nan,nan,[4494],2015-02-04 00:08:18.013130,earthquake_volcano_VT1,BOR.PF_20150204000818_VC
PF,BOR,EH,-21.246882,55.706053,2540,[404],manual,nan,nan,nan,nan,nan,nan,nan,nan,nan,nan,nan,nan,nan,nan,nan,nan,nan,nan,nan,nan,nan,nan,nan,[5784],2015-02-04 00:38:59.573130,earthquake_volcano_VT1,BOR.PF_20150204003859_VC
PF,BOR,EH,-21.246882,55.706053,2540,[606],manual,nan,nan,nan,nan,nan,nan,nan,nan,nan,nan,nan,nan,nan,nan,nan,nan,nan,nan,nan,nan,nan,nan,nan,[5352],2015-02-04 01:06:05.463130,earthquake_volcano_VT1,BOR.PF_20150204010605_VC
PF,BOR,EH,-21.246882,55.706053,2540,[561],manual,nan,nan,nan,nan,nan,nan,nan,nan,nan,nan,nan,nan,nan,nan,nan,nan,nan,nan,nan,nan,nan,nan,nan,[2588],2015-02-04 01:10:27.783130,earthquake_volcano_VT1,BOR.PF_20150204011027_VC
PF,BOR,EH,-21.246882,55.706053,2540,[3725],manual,nan,nan,nan,nan,nan,nan,nan,nan,nan,nan,nan,nan,nan,nan,nan,nan,nan,nan,nan,nan,nan,nan,nan,[5433],2015-02-04 01:29:51.163130,earthquake_volcano_VT1,BOR.PF_20150204012951_VC
PF,BOR,EH,-21.246882,55.706053,2540,[4386],manual,nan,nan,nan,nan,nan,nan,nan,nan,nan,nan,nan,nan,nan,nan,nan,nan,nan,nan,nan,nan,nan,nan,nan,[5797],2015-02-04 01:37:07.843130,earthquake_volcano_VT1,BOR.PF_20150204013707_VC
PF,BOR,EH,-21.246882,55.706053,2540,[4431],manual,nan,nan,nan,nan,nan,nan,nan,nan,nan,nan,nan,nan,nan,nan,nan,nan,nan,nan,nan,nan,nan,nan,nan,[5995],2015-02-04 01:46:16.233130,earthquake_volcano_VT1,BOR.PF_20150204014616_VC
PF,BOR,EH,-21.246882,55.706053,2540,[1703],manual,nan,nan,nan,nan,nan,nan,nan,nan,nan,nan,nan,nan,nan,nan,nan,nan,nan,nan,nan,nan,nan,nan,nan,[3833],2015-02-04 01:55:13.733130,earthquake_volcano_VT1,BOR.PF_20150204015513_VC
PF,BOR,EH,-21.246882,55.706053,2540,nan,auto_v1,nan,nan,nan,nan,nan,nan,nan,nan,nan,nan,nan,nan,nan,nan,nan,nan,nan,nan,nan,nan,nan,nan,nan,nan,2015-02-04 02:17:28.303130,noise_volcano,BOR.PF_20150204021728_NO
PF,BOR,EH,-21.246882,55.706053,2540,[853],manual,nan,nan,nan,nan,nan,nan,nan,nan,nan,nan,nan,nan,nan,nan,nan,nan,nan,nan,nan,nan,nan,nan,nan,[5838],2015-02-04 02:22:20.003130,earthquake_volcano_VT1,BOR.PF_20150204022220_VC
PF,BOR,EH,-21.246882,55.706053,2540,[2908],auto_v1,nan,nan,nan,nan,nan,nan,nan,nan,nan,nan,nan,nan,nan,nan,nan,nan,nan,nan,nan,nan,nan,nan,nan,[4354],2015-02-04 02:26:51.483130,earthquake_volcano_VT1,BOR.PF_20150204022651_VC
PF,BOR,EH,-21.246882,55.706053,2540,nan,auto_v1,nan,nan,nan,nan,nan,nan,nan,nan,nan,nan,nan,nan,nan,nan,nan,nan,nan,nan,nan,nan,nan,nan,nan,nan,2015-02-04 02:34:44.353130,noise_volcano,BOR.PF_20150204023444_NO
PF,BOR,EH,-21.246882,55.706053,2540,[3475 5005],manual,nan,nan,nan,nan,nan,nan,nan,nan,nan,nan,nan,nan,nan,nan,nan,nan,nan,nan,nan,nan,nan,nan,nan,[4637 5999],2015-02-04 02:35:13.093130,earthquake_volcano_VT1-VT1,BOR.PF_20150204023513_VC
PF,BOR,EH,-21.246882,55.706053,2540,nan,auto_v1,nan,nan,nan,nan,nan,nan,nan,nan,nan,nan,nan,nan,nan,nan,nan,nan,nan,nan,nan,nan,nan,nan,nan,nan,2015-02-04 02:36:46.413130,noise_volcano,BOR.PF_20150204023646_NO
PF,BOR,EH,-21.246882,55.706053,2540,nan,auto_v1,nan,nan,nan,nan,nan,nan,nan,nan,nan,nan,nan,nan,nan,nan,nan,nan,nan,nan,nan,nan,nan,nan,nan,nan,2015-02-04 02:40:18.673130,noise_volcano,BOR.PF_20150204024018_NO
PF,BOR,EH,-21.246882,55.706053,2540,[2570],manual,nan,nan,nan,nan,nan,nan,nan,nan,nan,nan,nan,nan,nan,nan,nan,nan,nan,nan,nan,nan,nan,nan,nan,[3770],2015-02-04 02:45:30.803130,earthquake_volcano_VT1,BOR.PF_20150204024530_VC
