network_code,receiver_code,receiver_type,receiver_latitude,receiver_longitude,receiver_elevation_m,p_arrival_sample,p_status,p_weight,p_travel_sec,s_arrival_sample,s_status,s_weight,source_id,source_origin_time,source_origin_uncertainty_sec,source_latitude,source_longitude,source_error_sec,source_gap_deg,source_horizontal_uncertainty_km,source_depth_km,source_depth_uncertainty_km,source_magnitude,source_magnitude_type,source_magnitude_author,source_mechanism_strike_dip_rake,source_distance_deg,source_distance_km,back_azimuth_deg,snr_db,coda_end_sample,trace_start_time,trace_category,trace_name
PF,BOR,EH,-21.246882,55.706053,2540,[2260],manual,nan,nan,nan,nan,nan,nan,nan,nan,nan,nan,nan,nan,nan,nan,nan,nan,nan,nan,nan,nan,nan,nan,nan,[3469],2015-02-04 02:48:58.483130,earthquake_volcano_VT1,BOR.PF_20150204024858_VC
PF,BOR,EH,-21.246882,55.706053,2540,[642],manual,nan,nan,nan,nan,nan,nan,nan,nan,nan,nan,nan,nan,nan,nan,nan,nan,nan,nan,nan,nan,nan,nan,nan,[1811],2015-02-04 03:05:22.363130,earthquake_volcano_VT1,BOR.PF_20150204030522_VC
PF,BOR,EH,-21.246882,55.706053,2540,[3892],manual,nan,nan,nan,nan,nan,nan,nan,nan,nan,nan,nan,nan,nan,nan,nan,nan,nan,nan,nan,nan,nan,nan,nan,[5024],2015-02-04 03:05:59.103130,earthquake_volcano_VT1,BOR.PF_20150204030559_VC
PF,BOR,EH,-21.246882,55.706053,2540,[  98 2683],manual,nan,nan,nan,nan,nan,nan,nan,nan,nan,nan,nan,nan,nan,nan,nan,nan,nan,nan,nan,nan,nan,nan,nan,[1415 3456],2015-02-04 03:06:36.983130,earthquake_volcano_VT1-VT1,BOR.PF_20150204030636_VC
PF,BOR,EH,-21.246882,55.706053,2540,[2975],manual,nan,nan,nan,nan,nan,nan,nan,nan,nan,nan,nan,nan,nan,nan,nan,nan,nan,nan,nan,nan,nan,nan,nan,[4310],2015-02-04 03:11:55.883130,earthquake_volcano_VT1,BOR.PF_20150204031155_VC
PF,BOR,EH,-21.246882,55.706053,2540,[2265],manual,nan,nan,nan,nan,nan,nan,nan,nan,nan,nan,nan,nan,nan,nan,nan,nan,nan,nan,nan,nan,nan,nan,nan,[3752],2015-02-04 03:25:23.933130,earthquake_volcano_VT1,BOR.PF_20150204032523_VC
PF,BOR,EH,-21.246882,55.706053,2540,[1002 4665],manual,nan,nan,nan,nan,nan,nan,nan,nan,nan,nan,nan,nan,nan,nan,nan,nan,nan,nan,nan,nan,nan,nan,nan,[1860 5366],2015-02-04 03:27:37.273130,earthquake_volcano_None,BOR.PF_20150204032737_VC
PF,BOR,EH,-21.246882,55.706053,2540,[746],manual,nan,nan,nan,nan,nan,nan,nan,nan,nan,nan,nan,nan,nan,nan,nan,nan,nan,nan,nan,nan,nan,nan,nan,[2233],2015-02-04 03:30:17.913130,earthquake_volcano_VT1,BOR.PF_20150204033017_VC
PF,BOR,EH,-21.246882,55.706053,2540,[3779],manual,nan,nan,nan,nan,nan,nan,nan,nan,nan,nan,nan,nan,nan,nan,nan,nan,nan,nan,nan,nan,nan,nan,nan,[5150],2015-02-04 03:33:20.583130,earthquake_volcano_VT1,BOR.PF_20150204033320_VC
PF,BOR,EH,-21.246882,55.706053,2540,[ 746 1671],manual,nan,nan,nan,nan,nan,nan,nan,nan,nan,nan,nan,nan,nan,nan,nan,nan,nan,nan,nan,nan,nan,nan,nan,[1429 3271],2015-02-04 03:36:05.023130,earthquake_volcano_VT1-VT1,BOR.PF_20150204033605_VC
PF,BOR,EH,-21.246882,55.706053,2540,[1361 2939],manual,nan,nan,nan,nan,nan,nan,nan,nan,nan,nan,nan,nan,nan,nan,nan,nan,nan,nan,nan,nan,nan,nan,nan,[2467 4786],2015-02-04 03:40:31.273130,earthquake_volcano_None,BOR.PF_20150204034031_VC
PF,BOR,EH,-21.246882,55.706053,2540,[543],manual,nan,nan,nan,nan,nan,nan,nan,nan,nan,nan,nan,nan,nan,nan,nan,nan,nan,nan,nan,nan,nan,nan,nan,[1411],2015-02-04 03:55:42.573130,earthquake_volcano_VT1,BOR.PF_20150204035542_VC
PF,BOR,EH,-21.246882,55.706053,2540,[534],manual,nan,nan,nan,nan,nan,nan,nan,nan,nan,nan,nan,nan,nan,nan,nan,nan,nan,nan,nan,nan,nan,nan,nan,[1752],2015-02-04 04:03:56.763130,earthquake_volcano_VT1,BOR.PF_20150204040356_VC
PF,BOR,EH,-21.246882,55.706053,2540,[2116],manual,nan,nan,nan,nan,nan,nan,nan,nan,nan,nan,nan,nan,nan,nan,nan,nan,nan,nan,nan,nan,nan,nan,nan,[3528],2015-02-04 04:05:16.043130,earthquake_volcano_VT1,BOR.PF_20150204040516_VC
PF,BOR,EH,-21.246882,55.706053,2540,[1752],manual,nan,nan,nan,nan,nan,nan,nan,nan,nan,nan,nan,nan,nan,nan,nan,nan,nan,nan,nan,nan,nan,nan,nan,[2903],2015-02-04 04:11:32.363130,earthquake_volcano_VT1,BOR.PF_20150204041132_VC
PF,BOR,EH,-21.246882,55.706053,2540,[1217],manual,nan,nan,nan,nan,nan,nan,nan,nan,nan,nan,nan,nan,nan,nan,nan,nan,nan,nan,nan,nan,nan,nan,nan,[4561],2015-02-04 04:18:07.303130,earthquake_volcano_VT1,BOR.PF_20150204041807_VC
PF,BOR,EH,-21.246882,55.706053,2540,[1238 3541 4788],manual,nan,nan,nan,nan,nan,nan,nan,nan,nan,nan,nan,nan,nan,nan,nan,nan,nan,nan,nan,nan,nan,nan,nan,[2085 4543 5999],2015-02-04 04:30:55.493130,earthquake_volcano_None-VT1-VT1,BOR.PF_20150204043055_VC
PF,BOR,EH,-21.246882,55.706053,2540,[3146],manual,nan,nan,nan,nan,nan,nan,nan,nan,nan,nan,nan,nan,nan,nan,nan,nan,nan,nan,nan,nan,nan,nan,nan,[4561],2015-02-04 04:39:23.863130,earthquake_volcano_VT1,BOR.PF_20150204043923_VC
PF,BOR,EH,-21.246882,55.706053,2540,[2570],manual,nan,nan,nan,nan,nan,nan,nan,nan,nan,nan,nan,nan,nan,nan,nan,nan,nan,nan,nan,nan,nan,nan,nan,[5177],2015-02-04 05:09:23.103130,earthquake_volcano_VT1,BOR.PF_20150204050923_VC
PF,BOR,EH,-21.246882,55.706053,2540,[3752],manual,nan,nan,nan,nan,nan,nan,nan,nan,nan,nan,nan,nan,nan,nan,nan,nan,nan,nan,nan,nan,nan,nan,nan,[5474],2015-02-04 05:23:48.773130,earthquake_volcano_VT1,BOR.PF_20150204052348_VC
PF,BOR,EH,-21.246882,55.706053,2540,[2865],auto_v1,nan,nan,nan,nan,nan,nan,nan,nan,nan,nan,nan,nan,nan,nan,nan,nan,nan,nan,nan,nan,nan,nan,nan,[5999],2015-02-04 05:23:57.733129,earthquake_volcano_VT1,BOR.PF_20150204052357_VC
PF,BOR,EH,-21.246882,55.706053,2540,[ 858 1680 4021],manual,nan,nan,nan,nan,nan,nan,nan,nan,nan,nan,nan,nan,nan,nan,nan,nan,nan,nan,nan,nan,nan,nan,nan,[1529 2323 5999],2015-02-04 05:25:15.373129,earthquake_volcano_None-None-VT1,BOR.PF_20150204052515_VC
PF,BOR,EH,-21.246882,55.706053,2540,[0],auto_v1,nan,nan,nan,nan,nan,nan,nan,nan,nan,nan,nan,nan,nan,nan,nan,nan,nan,nan,nan,nan,nan,nan,nan,[5999],2015-02-04 07:08:31.113129,earthquake_volcano_TRE,BOR.PF_20150204070831_VC
PF,BOR,EH,-21.246882,55.706053,2540,[0],auto_v1,nan,nan,nan,nan,nan,nan,nan,nan,nan,nan,nan,nan,nan,nan,nan,nan,nan,nan,nan,nan,nan,nan,nan,[5999],2015-02-04 07:18:07.023129,earthquake_volcano_TRE,BOR.PF_20150204071807_VC
PF,BOR,EH,-21.246882,55.706053,2540,[0],auto_v1,nan,nan,nan,nan,nan,nan,nan,nan,nan,nan,nan,nan,nan,nan,nan,nan,nan,nan,nan,nan,nan,nan,nan,[5999],2015-02-04 08:11:44.913130,earthquake_volcano_TRE,BOR.PF_20150204081144_VC
PF,BOR,EH,-21.246882,55.706053,2540,[0],auto_v1,nan,nan,nan,nan,nan,nan,nan,nan,nan,nan,nan,nan,nan,nan,nan,nan,nan,nan,nan,nan,nan,nan,nan,[5999],2015-02-04 09:36:53.653130,earthquake_volcano_TRE,BOR.PF_20150204093653_VC
PF,BOR,EH,-21.246882,55.706053,2540,[0],auto_v1,nan,nan,nan,nan,nan,nan,nan,nan,nan,nan,nan,nan,nan,nan,nan,nan,nan,nan,nan,nan,nan,nan,nan,[5999],2015-02-04 13:01:01.633130,earthquake_volcano_TRE,BOR.PF_20150204130101_VC
PF,BOR,EH,-21.246882,55.706053,2540,[0],auto_v1,nan,nan,nan,nan,nan,nan,nan,nan,nan,nan,nan,nan,nan,nan,nan,nan,nan,nan,nan,nan,nan,nan,nan,[5999],2015-02-04 13:23:54.653130,earthquake_volcano_TRE,BOR.PF_20150204132354_VC
PF,BOR,EH,-21.246882,55.706053,2540,[0],auto_v1,nan,nan,nan,nan,nan,nan,nan,nan,nan,nan,nan,nan,nan,nan,nan,nan,nan,nan,nan,nan,nan,nan,nan,[5999],2015-02-05 18:47:57.653130,earthquake_volcano_TRE,BOR.PF_20150205184757_VC
PF,BOR,EH,-21.246882,55.706053,2540,[0],auto_v1,nan,nan,nan,nan,nan,nan,nan,nan,nan,nan,nan,nan,nan,nan,nan,nan,nan,nan,nan,nan,nan,nan,nan,[5999],2015-02-06 14:35:22.153130,earthquake_volcano_TRE,BOR.PF_20150206143522_VC
PF,BOR,EH,-21.246882,55.706053,2540,[0],manual,nan,nan,nan,nan,nan,nan,nan,nan,nan,nan,nan,nan,nan,nan,nan,nan,nan,nan,nan,nan,nan,nan,nan,[5999],2015-02-07 20:57:58.713129,earthquake_volcano_TRE,BOR.PF_20150207205758_VC
PF,BOR,EH,-21.246882,55.706053,2540,[0],manual,nan,nan,nan,nan,nan,nan,nan,nan,nan,nan,nan,nan,nan,nan,nan,nan,nan,nan,nan,nan,nan,nan,nan,[5999],2015-02-08 07:19:19.623130,earthquake_volcano_TRE,BOR.PF_20150208071919_VC
PF,BOR,EH,-21.246882,55.706053,2540,[0],manual,nan,nan,nan,nan,nan,nan,nan,nan,nan,nan,nan,nan,nan,nan,nan,nan,nan,nan,nan,nan,nan,nan,nan,[5999],2015-02-09 10:40:33.253131,earthquake_volcano_TRE,BOR.PF_20150209104033_VC
PF,BOR,EH,-21.246882,55.706053,2540,[0],manual,nan,nan,nan,nan,nan,nan,nan,nan,nan,nan,nan,nan,nan,nan,nan,nan,nan,nan,nan,nan,nan,nan,nan,[5999],2015-02-10 22:27:24.943130,earthquake_volcano_TRE,BOR.PF_20150210222724_VC
PF,BOR,EH,-21.246882,55.706053,2540,[0],manual,nan,nan,nan,nan,nan,nan,nan,nan,nan,nan,nan,nan,nan,nan,nan,nan,nan,nan,nan,nan,nan,nan,nan,[5999],2015-02-13 15:56:55.153130,earthquake_volcano_TRE,BOR.PF_20150213155655_VC
PF,BOR,EH,-21.246882,55.706053,2540,[0],manual,nan,nan,nan,nan,nan,nan,nan,nan,nan,nan,nan,nan,nan,nan,nan,nan,nan,nan,nan,nan,nan,nan,nan,[5999],2015-02-14 02:25:07.613130,earthquake_volcano_TRE,BOR.PF_20150214022507_VC
PF,BOR,EH,-21.246882,55.706053,2540,[   4 1765],manual,nan,nan,nan,nan,nan,nan,nan,nan,nan,nan,nan,nan,nan,nan,nan,nan,nan,nan,nan,nan,nan,nan,nan,[1273 5830],2015-02-15 13:08:48.543130,earthquake_volcano_None-PIS,BOR.PF_20150215130848_VC
PF,BOR,EH,-21.246882,55.706053,2540,[   0 2017 4013],manual,nan,nan,nan,nan,nan,nan,nan,nan,nan,nan,nan,nan,nan,nan,nan,nan,nan,nan,nan,nan,nan,nan,nan,[1508 3860 5982],2015-02-15 13:14:00.473130,earthquake_volcano_LP1-LP1-LP1,BOR.PF_20150215131400_VC
PF,BOR,EH,-21.246882,55.706053,2540,[197],auto_v1,nan,nan,nan,nan,nan,nan,nan,nan,nan,nan,nan,nan,nan,nan,nan,nan,nan,nan,nan,nan,nan,nan,nan,[5804],2015-02-15 13:34:01.873130,earthquake_volcano_PIS,BOR.PF_20150215133401_VC
PF,BOR,EH,-21.246882,55.706053,2540,[  34 1969],manual,nan,nan,nan,nan,nan,nan,nan,nan,nan,nan,nan,nan,nan,nan,nan,nan,nan,nan,nan,nan,nan,nan,nan,[1843 5817],2015-02-15 13:56:53.313130,earthquake_volcano_None,BOR.PF_20150215135653_VC
PF,BOR,EH,-21.246882,55.706053,2540,[0],auto_v1,nan,nan,nan,nan,nan,nan,nan,nan,nan,nan,nan,nan,nan,nan,nan,nan,nan,nan,nan,nan,nan,nan,nan,[5999],2015-02-15 14:14:23.283130,earthquake_volcano_TRE,BOR.PF_20150215141423_VC
PF,BOR,EH,-21.246882,55.706053,2540,[ 643 3078],manual,nan,nan,nan,nan,nan,nan,nan,nan,nan,nan,nan,nan,nan,nan,nan,nan,nan,nan,nan,nan,nan,nan,nan,[2808 5417],2015-02-15 14:36:45.213130,earthquake_volcano_LP1-LP1,BOR.PF_20150215143645_VC
PF,BOR,EH,-21.246882,55.706053,2540,[ 513 5352],manual,nan,nan,nan,nan,nan,nan,nan,nan,nan,nan,nan,nan,nan,nan,nan,nan,nan,nan,nan,nan,nan,nan,nan,[4478 5999],2015-02-15 14:48:11.853130,earthquake_volcano_LP1-None,BOR.PF_20150215144811_VC
PF,BOR,EH,-21.246882,55.706053,2540,[  21 3491],manual,nan,nan,nan,nan,nan,nan,nan,nan,nan,nan,nan,nan,nan,nan,nan,nan,nan,nan,nan,nan,nan,nan,nan,[2952 5908],2015-02-15 15:01:01.583130,earthquake_volcano_LP1-LP1,BOR.PF_20150215150101_VC
PF,BOR,EH,-21.246882,55.706053,2540,[   0 2730 4982],manual,nan,nan,nan,nan,nan,nan,nan,nan,nan,nan,nan,nan,nan,nan,nan,nan,nan,nan,nan,nan,nan,nan,nan,[1826 4391 5991],2015-02-15 15:19:20.723130,earthquake_volcano_None-LP1-None,BOR.PF_20150215151920_VC
PF,BOR,EH,-21.246882,55.706053,2540,[782],manual,nan,nan,nan,nan,nan,nan,nan,nan,nan,nan,nan,nan,nan,nan,nan,nan,nan,nan,nan,nan,nan,nan,nan,[5669],2015-02-15 15:21:09.293130,earthquake_volcano_TRE,BOR.PF_20150215152109_VC
PF,BOR,EH,-21.246882,55.706053,2540,[1352],manual,nan,nan,nan,nan,nan,nan,nan,nan,nan,nan,nan,nan,nan,nan,nan,nan,nan,nan,nan,nan,nan,nan,nan,[5234],2015-02-15 15:23:01.663130,earthquake_volcano_LP1,BOR.PF_20150215152301_VC
PF,BOR,EH,-21.246882,55.706053,2540,[1121 4530],manual,nan,nan,nan,nan,nan,nan,nan,nan,nan,nan,nan,nan,nan,nan,nan,nan,nan,nan,nan,nan,nan,nan,nan,[3678 5986],2015-02-15 16:01:21.703130,earthquake_volcano_LP1-LP1,BOR.PF_20150215160121_VC
PF,BOR,EH,-21.246882,55.706053,2540,[482],manual,nan,nan,nan,nan,nan,nan,nan,nan,nan,nan,nan,nan,nan,nan,nan,nan,nan,nan,nan,nan,nan,nan,nan,[2817],2015-02-15 16:20:21.753130,earthquake_volcano_LP1,BOR.PF_20150215162021_VC
PF,BOR,EH,-21.246882,55.706053,2540,[0],auto_v1,nan,nan,nan,nan,nan,nan,nan,nan,nan,nan,nan,nan,nan,nan,nan,nan,nan,nan,nan,nan,nan,nan,nan,[5999],2015-02-15 16:22:30.403130,earthquake_volcano_TRE,BOR.PF_20150215162230_VC
PF,BOR,EH,-21.246882,55.706053,2540,[3943],manual,nan,nan,nan,nan,nan,nan,nan,nan,nan,nan,nan,nan,nan,nan,nan,nan,nan,nan,nan,nan,nan,nan,nan,[5330],2015-02-15 16:38:09.583130,earthquake_volcano_LP1,BOR.PF_20150215163809_VC
PF,BOR,EH,-21.246882,55.706053,2540,[3482],manual,nan,nan,nan,nan,nan,nan,nan,nan,nan,nan,nan,nan,nan,nan,nan,nan,nan,nan,nan,nan,nan,nan,nan,[4934],2015-02-15 16:38:14.183130,earthquake_volcano_LP1,BOR.PF_20150215163814_VC
PF,BOR,EH,-21.246882,55.706053,2540,[1747],manual,nan,nan,nan,nan,nan,nan,nan,nan,nan,nan,nan,nan,nan,nan,nan,nan,nan,nan,nan,nan,nan,nan,nan,[5221],2015-02-15 16:38:58.863130,earthquake_volcano_LP1,BOR.PF_20150215163858_VC
PF,BOR,EH,-21.246882,55.706053,2540,[626],manual,nan,nan,nan,nan,nan,nan,nan,nan,nan,nan,nan,nan,nan,nan,nan,nan,nan,nan,nan,nan,nan,nan,nan,[3839],2015-02-15 16:40:12.333130,earthquake_volcano_LP1,BOR.PF_20150215164012_VC
PF,BOR,EH,-21.246882,55.706053,2540,[1300],manual,nan,nan,nan,nan,nan,nan,nan,nan,nan,nan,nan,nan,nan,nan,nan,nan,nan,nan,nan,nan,nan,nan,nan,[5573],2015-02-15 16:48:29.853130,earthquake_volcano_PIS,BOR.PF_20150215164829_VC
PF,BOR,EH,-21.246882,55.706053,2540,[2669],manual,nan,nan,nan,nan,nan,nan,nan,nan,nan,nan,nan,nan,nan,nan,nan,nan,nan,nan,nan,nan,nan,nan,nan,[5999],2015-02-15 17:30:45.173130,earthquake_volcano_TRE,BOR.PF_20150215173045_VC
PF,BOR,EH,-21.246882,55.706053,2540,[ 578 3252],manual,nan,nan,nan,nan,nan,nan,nan,nan,nan,nan,nan,nan,nan,nan,nan,nan,nan,nan,nan,nan,nan,nan,nan,[2247 5356],2015-02-15 17:58:26.873130,earthquake_volcano_LP1-LP1,BOR.PF_20150215175826_VC
PF,BOR,EH,-21.246882,55.706053,2540,[0],auto_v1,nan,nan,nan,nan,nan,nan,nan,nan,nan,nan,nan,nan,nan,nan,nan,nan,nan,nan,nan,nan,nan,nan,nan,[5999],2015-02-15 18:01:12.553130,earthquake_volcano_TRE,BOR.PF_20150215180112_VC
PF,BOR,EH,-21.246882,55.706053,2540,nan,auto_v1,nan,nan,nan,nan,nan,nan,nan,nan,nan,nan,nan,nan,nan,nan,nan,nan,nan,nan,nan,nan,nan,nan,nan,nan,2015-02-15 20:08:37.493131,noise_volcano,BOR.PF_20150215200837_NO
PF,BOR,EH,-21.246882,55.706053,2540,[882],manual,nan,nan,nan,nan,nan,nan,nan,nan,nan,nan,nan,nan,nan,nan,nan,nan,nan,nan,nan,nan,nan,nan,nan,[1643],2015-02-15 20:10:55.503131,earthquake_volcano_None,BOR.PF_20150215201055_VC
PF,BOR,EH,-21.246882,55.706053,2540,[3169],manual,nan,nan,nan,nan,nan,nan,nan,nan,nan,nan,nan,nan,nan,nan,nan,nan,nan,nan,nan,nan,nan,nan,nan,[4560],2015-02-15 20:13:58.753131,earthquake_volcano_None,BOR.PF_20150215201358_VC
PF,BOR,EH,-21.246882,55.706053,2540,[1886],manual,nan,nan,nan,nan,nan,nan,nan,nan,nan,nan,nan,nan,nan,nan,nan,nan,nan,nan,nan,nan,nan,nan,nan,[4295],2015-02-15 21:00:49.163130,earthquake_volcano_LP1,BOR.PF_20150215210049_VC
PF,BOR,EH,-21.246882,55.706053,2540,[1495],manual,nan,nan,nan,nan,nan,nan,nan,nan,nan,nan,nan,nan,nan,nan,nan,nan,nan,nan,nan,nan,nan,nan,nan,[2504],2015-02-15 21:11:40.983130,earthquake_volcano_None,BOR.PF_20150215211140_VC
PF,BOR,EH,-21.246882,55.706053,2540,[4052],manual,nan,nan,nan,nan,nan,nan,nan,nan,nan,nan,nan,nan,nan,nan,nan,nan,nan,nan,nan,nan,nan,nan,nan,[5608],2015-02-15 21:16:26.683130,earthquake_volcano_LP1,BOR.PF_20150215211626_VC
PF,BOR,EH,-21.246882,55.706053,2540,nan,auto_v1,nan,nan,nan,nan,nan,nan,nan,nan,nan,nan,nan,nan,nan,nan,nan,nan,nan,nan,nan,nan,nan,nan,nan,nan,2015-02-15 22:21:07.163130,noise_volcano,BOR.PF_20150215222107_NO
PF,BOR,EH,-21.246882,55.706053,2540,[4213],manual,nan,nan,nan,nan,nan,nan,nan,nan,nan,nan,nan,nan,nan,nan,nan,nan,nan,nan,nan,nan,nan,nan,nan,[5121],2015-02-15 23:45:54.143130,earthquake_volcano_None,BOR.PF_20150215234554_VC
PF,BOR,EH,-21.246882,55.706053,2540,[2747],manual,nan,nan,nan,nan,nan,nan,nan,nan,nan,nan,nan,nan,nan,nan,nan,nan,nan,nan,nan,nan,nan,nan,nan,[3460],2015-02-15 23:50:40.003130,earthquake_volcano_None,BOR.PF_20150215235040_VC
PF,BOR,EH,-21.246882,55.706053,2540,[3726],manual,nan,nan,nan,nan,nan,nan,nan,nan,nan,nan,nan,nan,nan,nan,nan,nan,nan,nan,nan,nan,nan,nan,nan,[5700],2015-02-15 23:51:32.863130,earthquake_volcano_LP1,BOR.PF_20150215235132_VC
PF,BOR,EH,-21.246882,55.706053,2540,[921],manual,nan,nan,nan,nan,nan,nan,nan,nan,nan,nan,nan,nan,nan,nan,nan,nan,nan,nan,nan,nan,nan,nan,nan,[2026],2015-02-15 23:58:14.263130,earthquake_volcano_None,BOR.PF_20150215235814_VC
PF,BOR,EH,-21.246882,55.706053,2540,nan,auto_v1,nan,nan,nan,nan,nan,nan,nan,nan,nan,nan,nan,nan,nan,nan,nan,nan,nan,nan,nan,nan,nan,nan,nan,nan,2015-02-16 12:21:59.813129,noise_volcano,BOR.PF_20150216122159_NO
PF,BOR,EH,-21.246882,55.706053,2540,nan,auto_v1,nan,nan,nan,nan,nan,nan,nan,nan,nan,nan,nan,nan,nan,nan,nan,nan,nan,nan,nan,nan,nan,nan,nan,nan,2015-02-17 19:00:44.023130,noise_volcano,BOR.PF_20150217190044_NO
PF,BOR,EH,-21.246882,55.706053,2540,[1661],manual,nan,nan,nan,nan,nan,nan,nan,nan,nan,nan,nan,nan,nan,nan,nan,nan,nan,nan,nan,nan,nan,nan,nan,[3220],2015-02-17 19:24:00.573130,earthquake_volcano_LP1,BOR.PF_20150217192400_VC
PF,BOR,EH,-21.246882,55.706053,2540,nan,auto_v1,nan,nan,nan,nan,nan,nan,nan,nan,nan,nan,nan,nan,nan,nan,nan,nan,nan,nan,nan,nan,nan,nan,nan,nan,2015-02-17 20:07:08.523130,noise_volcano,BOR.PF_20150217200708_NO
PF,BOR,EH,-21.246882,55.706053,2540,[3326],auto_v1,nan,nan,nan,nan,nan,nan,nan,nan,nan,nan,nan,nan,nan,nan,nan,nan,nan,nan,nan,nan,nan,nan,nan,[4532],2015-02-17 20:25:37.843130,earthquake_volcano_None,BOR.PF_20150217202537_VC
PF,BOR,EH,-21.246882,55.706053,2540,nan,auto_v1,nan,nan,nan,nan,nan,nan,nan,nan,nan,nan,nan,nan,nan,nan,nan,nan,nan,nan,nan,nan,nan,nan,nan,nan,2015-02-17 20:42:04.023130,noise_volcano,BOR.PF_20150217204204_NO
PF,BOR,EH,-21.246882,55.706053,2540,nan,auto_v1,nan,nan,nan,nan,nan,nan,nan,nan,nan,nan,nan,nan,nan,nan,nan,nan,nan,nan,nan,nan,nan,nan,nan,nan,2015-02-17 20:42:13.923130,noise_volcano,BOR.PF_20150217204213_NO
PF,BOR,EH,-21.246882,55.706053,2540,nan,auto_v1,nan,nan,nan,nan,nan,nan,nan,nan,nan,nan,nan,nan,nan,nan,nan,nan,nan,nan,nan,nan,nan,nan,nan,nan,2015-02-17 21:07:31.463130,noise_volcano,BOR.PF_20150217210731_NO
PF,BOR,EH,-21.246882,55.706053,2540,[1321],manual,nan,nan,nan,nan,nan,nan,nan,nan,nan,nan,nan,nan,nan,nan,nan,nan,nan,nan,nan,nan,nan,nan,nan,[4816],2015-02-17 21:08:48.953130,earthquake_volcano_None,BOR.PF_20150217210848_VC
PF,BOR,EH,-21.246882,55.706053,2540,[4283],manual,nan,nan,nan,nan,nan,nan,nan,nan,nan,nan,nan,nan,nan,nan,nan,nan,nan,nan,nan,nan,nan,nan,nan,[5268],2015-02-17 21:27:48.713130,earthquake_volcano_None,BOR.PF_20150217212748_VC
PF,BOR,EH,-21.246882,55.706053,2540,nan,auto_v1,nan,nan,nan,nan,nan,nan,nan,nan,nan,nan,nan,nan,nan,nan,nan,nan,nan,nan,nan,nan,nan,nan,nan,nan,2015-02-17 21:29:57.623130,noise_volcano,BOR.PF_20150217212957_NO
PF,BOR,EH,-21.246882,55.706053,2540,nan,auto_v1,nan,nan,nan,nan,nan,nan,nan,nan,nan,nan,nan,nan,nan,nan,nan,nan,nan,nan,nan,nan,nan,nan,nan,nan,2015-02-17 21:31:56.743130,noise_volcano,BOR.PF_20150217213156_NO
PF,BOR,EH,-21.246882,55.706053,2540,[2262],manual,nan,nan,nan,nan,nan,nan,nan,nan,nan,nan,nan,nan,nan,nan,nan,nan,nan,nan,nan,nan,nan,nan,nan,[4110],2015-02-17 21:38:39.553130,earthquake_volcano_LP1,BOR.PF_20150217213839_VC
PF,BOR,EH,-21.246882,55.706053,2540,nan,auto_v1,nan,nan,nan,nan,nan,nan,nan,nan,nan,nan,nan,nan,nan,nan,nan,nan,nan,nan,nan,nan,nan,nan,nan,nan,2015-02-17 23:10:40.793130,noise_volcano,BOR.PF_20150217231040_NO
PF,BOR,EH,-21.246882,55.706053,2540,[1392],manual,nan,nan,nan,nan,nan,nan,nan,nan,nan,nan,nan,nan,nan,nan,nan,nan,nan,nan,nan,nan,nan,nan,nan,[2887],2015-02-17 23:11:25.043130,earthquake_volcano_None,BOR.PF_20150217231125_VC
PF,BOR,EH,-21.246882,55.706053,2540,[743],manual,nan,nan,nan,nan,nan,nan,nan,nan,nan,nan,nan,nan,nan,nan,nan,nan,nan,nan,nan,nan,nan,nan,nan,[2540],2015-02-17 23:38:31.663130,earthquake_volcano_None,BOR.PF_20150217233831_VC
